; demo: print a ring on the turning plate, then mill a slot through it
G28                ; home all joints and the plate
M104 S210          ; hot end target (heats once the hot end tool is on)
M6 T0              ; pick up the hot end tool
M109 S210          ; wait for the hot end
G90
M83                ; relative extrusion
G0 X12 Y0 Z5
M620               ; polar mode: plate turns, arm stays in its plane
; layer 1
G1 X12 Y0 Z0.300 F600
G1 E0.8 F1200      ; prime / unretract
G1 X11.954 Y1.046 E0.065 F600
G1 X11.818 Y2.084 E0.065 F600
G1 X11.591 Y3.106 E0.065 F600
G1 X11.276 Y4.104 E0.065 F600
G1 X10.876 Y5.071 E0.065 F600
G1 X10.392 Y6.000 E0.065 F600
G1 X9.830 Y6.883 E0.065 F600
G1 X9.193 Y7.713 E0.065 F600
G1 X8.485 Y8.485 E0.065 F600
G1 X7.713 Y9.193 E0.065 F600
G1 X6.883 Y9.830 E0.065 F600
G1 X6.000 Y10.392 E0.065 F600
G1 X5.071 Y10.876 E0.065 F600
G1 X4.104 Y11.276 E0.065 F600
G1 X3.106 Y11.591 E0.065 F600
G1 X2.084 Y11.818 E0.065 F600
G1 X1.046 Y11.954 E0.065 F600
G1 X0.000 Y12.000 E0.065 F600
G1 X-1.046 Y11.954 E0.065 F600
G1 X-2.084 Y11.818 E0.065 F600
G1 X-3.106 Y11.591 E0.065 F600
G1 X-4.104 Y11.276 E0.065 F600
G1 X-5.071 Y10.876 E0.065 F600
G1 X-6.000 Y10.392 E0.065 F600
G1 X-6.883 Y9.830 E0.065 F600
G1 X-7.713 Y9.193 E0.065 F600
G1 X-8.485 Y8.485 E0.065 F600
G1 X-9.193 Y7.713 E0.065 F600
G1 X-9.830 Y6.883 E0.065 F600
G1 X-10.392 Y6.000 E0.065 F600
G1 X-10.876 Y5.071 E0.065 F600
G1 X-11.276 Y4.104 E0.065 F600
G1 X-11.591 Y3.106 E0.065 F600
G1 X-11.818 Y2.084 E0.065 F600
G1 X-11.954 Y1.046 E0.065 F600
G1 X-12.000 Y0.000 E0.065 F600
G1 X-11.954 Y-1.046 E0.065 F600
G1 X-11.818 Y-2.084 E0.065 F600
G1 X-11.591 Y-3.106 E0.065 F600
G1 X-11.276 Y-4.104 E0.065 F600
G1 X-10.876 Y-5.071 E0.065 F600
G1 X-10.392 Y-6.000 E0.065 F600
G1 X-9.830 Y-6.883 E0.065 F600
G1 X-9.193 Y-7.713 E0.065 F600
G1 X-8.485 Y-8.485 E0.065 F600
G1 X-7.713 Y-9.193 E0.065 F600
G1 X-6.883 Y-9.830 E0.065 F600
G1 X-6.000 Y-10.392 E0.065 F600
G1 X-5.071 Y-10.876 E0.065 F600
G1 X-4.104 Y-11.276 E0.065 F600
G1 X-3.106 Y-11.591 E0.065 F600
G1 X-2.084 Y-11.818 E0.065 F600
G1 X-1.046 Y-11.954 E0.065 F600
G1 X-0.000 Y-12.000 E0.065 F600
G1 X1.046 Y-11.954 E0.065 F600
G1 X2.084 Y-11.818 E0.065 F600
G1 X3.106 Y-11.591 E0.065 F600
G1 X4.104 Y-11.276 E0.065 F600
G1 X5.071 Y-10.876 E0.065 F600
G1 X6.000 Y-10.392 E0.065 F600
G1 X6.883 Y-9.830 E0.065 F600
G1 X7.713 Y-9.193 E0.065 F600
G1 X8.485 Y-8.485 E0.065 F600
G1 X9.193 Y-7.713 E0.065 F600
G1 X9.830 Y-6.883 E0.065 F600
G1 X10.392 Y-6.000 E0.065 F600
G1 X10.876 Y-5.071 E0.065 F600
G1 X11.276 Y-4.104 E0.065 F600
G1 X11.591 Y-3.106 E0.065 F600
G1 X11.818 Y-2.084 E0.065 F600
G1 X11.954 Y-1.046 E0.065 F600
G1 X12.000 Y-0.000 E0.065 F600
G1 E-0.8 F1800     ; retract
; layer 2
G1 X12 Y0 Z0.600 F600
G1 E0.8 F1200      ; prime / unretract
G1 X11.954 Y1.046 E0.065 F900
G1 X11.818 Y2.084 E0.065 F900
G1 X11.591 Y3.106 E0.065 F900
G1 X11.276 Y4.104 E0.065 F900
G1 X10.876 Y5.071 E0.065 F900
G1 X10.392 Y6.000 E0.065 F900
G1 X9.830 Y6.883 E0.065 F900
G1 X9.193 Y7.713 E0.065 F900
G1 X8.485 Y8.485 E0.065 F900
G1 X7.713 Y9.193 E0.065 F900
G1 X6.883 Y9.830 E0.065 F900
G1 X6.000 Y10.392 E0.065 F900
G1 X5.071 Y10.876 E0.065 F900
G1 X4.104 Y11.276 E0.065 F900
G1 X3.106 Y11.591 E0.065 F900
G1 X2.084 Y11.818 E0.065 F900
G1 X1.046 Y11.954 E0.065 F900
G1 X0.000 Y12.000 E0.065 F900
G1 X-1.046 Y11.954 E0.065 F900
G1 X-2.084 Y11.818 E0.065 F900
G1 X-3.106 Y11.591 E0.065 F900
G1 X-4.104 Y11.276 E0.065 F900
G1 X-5.071 Y10.876 E0.065 F900
G1 X-6.000 Y10.392 E0.065 F900
G1 X-6.883 Y9.830 E0.065 F900
G1 X-7.713 Y9.193 E0.065 F900
G1 X-8.485 Y8.485 E0.065 F900
G1 X-9.193 Y7.713 E0.065 F900
G1 X-9.830 Y6.883 E0.065 F900
G1 X-10.392 Y6.000 E0.065 F900
G1 X-10.876 Y5.071 E0.065 F900
G1 X-11.276 Y4.104 E0.065 F900
G1 X-11.591 Y3.106 E0.065 F900
G1 X-11.818 Y2.084 E0.065 F900
G1 X-11.954 Y1.046 E0.065 F900
G1 X-12.000 Y0.000 E0.065 F900
G1 X-11.954 Y-1.046 E0.065 F900
G1 X-11.818 Y-2.084 E0.065 F900
G1 X-11.591 Y-3.106 E0.065 F900
G1 X-11.276 Y-4.104 E0.065 F900
G1 X-10.876 Y-5.071 E0.065 F900
G1 X-10.392 Y-6.000 E0.065 F900
G1 X-9.830 Y-6.883 E0.065 F900
G1 X-9.193 Y-7.713 E0.065 F900
G1 X-8.485 Y-8.485 E0.065 F900
G1 X-7.713 Y-9.193 E0.065 F900
G1 X-6.883 Y-9.830 E0.065 F900
G1 X-6.000 Y-10.392 E0.065 F900
G1 X-5.071 Y-10.876 E0.065 F900
G1 X-4.104 Y-11.276 E0.065 F900
G1 X-3.106 Y-11.591 E0.065 F900
G1 X-2.084 Y-11.818 E0.065 F900
G1 X-1.046 Y-11.954 E0.065 F900
G1 X-0.000 Y-12.000 E0.065 F900
G1 X1.046 Y-11.954 E0.065 F900
G1 X2.084 Y-11.818 E0.065 F900
G1 X3.106 Y-11.591 E0.065 F900
G1 X4.104 Y-11.276 E0.065 F900
G1 X5.071 Y-10.876 E0.065 F900
G1 X6.000 Y-10.392 E0.065 F900
G1 X6.883 Y-9.830 E0.065 F900
G1 X7.713 Y-9.193 E0.065 F900
G1 X8.485 Y-8.485 E0.065 F900
G1 X9.193 Y-7.713 E0.065 F900
G1 X9.830 Y-6.883 E0.065 F900
G1 X10.392 Y-6.000 E0.065 F900
G1 X10.876 Y-5.071 E0.065 F900
G1 X11.276 Y-4.104 E0.065 F900
G1 X11.591 Y-3.106 E0.065 F900
G1 X11.818 Y-2.084 E0.065 F900
G1 X11.954 Y-1.046 E0.065 F900
G1 X12.000 Y-0.000 E0.065 F900
G1 E-0.8 F1800     ; retract
; layer 3
G1 X12 Y0 Z0.900 F600
G1 E0.8 F1200      ; prime / unretract
G1 X11.954 Y1.046 E0.065 F900
G1 X11.818 Y2.084 E0.065 F900
G1 X11.591 Y3.106 E0.065 F900
G1 X11.276 Y4.104 E0.065 F900
G1 X10.876 Y5.071 E0.065 F900
G1 X10.392 Y6.000 E0.065 F900
G1 X9.830 Y6.883 E0.065 F900
G1 X9.193 Y7.713 E0.065 F900
G1 X8.485 Y8.485 E0.065 F900
G1 X7.713 Y9.193 E0.065 F900
G1 X6.883 Y9.830 E0.065 F900
G1 X6.000 Y10.392 E0.065 F900
G1 X5.071 Y10.876 E0.065 F900
G1 X4.104 Y11.276 E0.065 F900
G1 X3.106 Y11.591 E0.065 F900
G1 X2.084 Y11.818 E0.065 F900
G1 X1.046 Y11.954 E0.065 F900
G1 X0.000 Y12.000 E0.065 F900
G1 X-1.046 Y11.954 E0.065 F900
G1 X-2.084 Y11.818 E0.065 F900
G1 X-3.106 Y11.591 E0.065 F900
G1 X-4.104 Y11.276 E0.065 F900
G1 X-5.071 Y10.876 E0.065 F900
G1 X-6.000 Y10.392 E0.065 F900
G1 X-6.883 Y9.830 E0.065 F900
G1 X-7.713 Y9.193 E0.065 F900
G1 X-8.485 Y8.485 E0.065 F900
G1 X-9.193 Y7.713 E0.065 F900
G1 X-9.830 Y6.883 E0.065 F900
G1 X-10.392 Y6.000 E0.065 F900
G1 X-10.876 Y5.071 E0.065 F900
G1 X-11.276 Y4.104 E0.065 F900
G1 X-11.591 Y3.106 E0.065 F900
G1 X-11.818 Y2.084 E0.065 F900
G1 X-11.954 Y1.046 E0.065 F900
G1 X-12.000 Y0.000 E0.065 F900
G1 X-11.954 Y-1.046 E0.065 F900
G1 X-11.818 Y-2.084 E0.065 F900
G1 X-11.591 Y-3.106 E0.065 F900
G1 X-11.276 Y-4.104 E0.065 F900
G1 X-10.876 Y-5.071 E0.065 F900
G1 X-10.392 Y-6.000 E0.065 F900
G1 X-9.830 Y-6.883 E0.065 F900
G1 X-9.193 Y-7.713 E0.065 F900
G1 X-8.485 Y-8.485 E0.065 F900
G1 X-7.713 Y-9.193 E0.065 F900
G1 X-6.883 Y-9.830 E0.065 F900
G1 X-6.000 Y-10.392 E0.065 F900
G1 X-5.071 Y-10.876 E0.065 F900
G1 X-4.104 Y-11.276 E0.065 F900
G1 X-3.106 Y-11.591 E0.065 F900
G1 X-2.084 Y-11.818 E0.065 F900
G1 X-1.046 Y-11.954 E0.065 F900
G1 X-0.000 Y-12.000 E0.065 F900
G1 X1.046 Y-11.954 E0.065 F900
G1 X2.084 Y-11.818 E0.065 F900
G1 X3.106 Y-11.591 E0.065 F900
G1 X4.104 Y-11.276 E0.065 F900
G1 X5.071 Y-10.876 E0.065 F900
G1 X6.000 Y-10.392 E0.065 F900
G1 X6.883 Y-9.830 E0.065 F900
G1 X7.713 Y-9.193 E0.065 F900
G1 X8.485 Y-8.485 E0.065 F900
G1 X9.193 Y-7.713 E0.065 F900
G1 X9.830 Y-6.883 E0.065 F900
G1 X10.392 Y-6.000 E0.065 F900
G1 X10.876 Y-5.071 E0.065 F900
G1 X11.276 Y-4.104 E0.065 F900
G1 X11.591 Y-3.106 E0.065 F900
G1 X11.818 Y-2.084 E0.065 F900
G1 X11.954 Y-1.046 E0.065 F900
G1 X12.000 Y-0.000 E0.065 F900
G1 E-0.8 F1800     ; retract
; layer 4
G1 X12 Y0 Z1.200 F600
G1 E0.8 F1200      ; prime / unretract
G1 X11.954 Y1.046 E0.065 F900
G1 X11.818 Y2.084 E0.065 F900
G1 X11.591 Y3.106 E0.065 F900
G1 X11.276 Y4.104 E0.065 F900
G1 X10.876 Y5.071 E0.065 F900
G1 X10.392 Y6.000 E0.065 F900
G1 X9.830 Y6.883 E0.065 F900
G1 X9.193 Y7.713 E0.065 F900
G1 X8.485 Y8.485 E0.065 F900
G1 X7.713 Y9.193 E0.065 F900
G1 X6.883 Y9.830 E0.065 F900
G1 X6.000 Y10.392 E0.065 F900
G1 X5.071 Y10.876 E0.065 F900
G1 X4.104 Y11.276 E0.065 F900
G1 X3.106 Y11.591 E0.065 F900
G1 X2.084 Y11.818 E0.065 F900
G1 X1.046 Y11.954 E0.065 F900
G1 X0.000 Y12.000 E0.065 F900
G1 X-1.046 Y11.954 E0.065 F900
G1 X-2.084 Y11.818 E0.065 F900
G1 X-3.106 Y11.591 E0.065 F900
G1 X-4.104 Y11.276 E0.065 F900
G1 X-5.071 Y10.876 E0.065 F900
G1 X-6.000 Y10.392 E0.065 F900
G1 X-6.883 Y9.830 E0.065 F900
G1 X-7.713 Y9.193 E0.065 F900
G1 X-8.485 Y8.485 E0.065 F900
G1 X-9.193 Y7.713 E0.065 F900
G1 X-9.830 Y6.883 E0.065 F900
G1 X-10.392 Y6.000 E0.065 F900
G1 X-10.876 Y5.071 E0.065 F900
G1 X-11.276 Y4.104 E0.065 F900
G1 X-11.591 Y3.106 E0.065 F900
G1 X-11.818 Y2.084 E0.065 F900
G1 X-11.954 Y1.046 E0.065 F900
G1 X-12.000 Y0.000 E0.065 F900
G1 X-11.954 Y-1.046 E0.065 F900
G1 X-11.818 Y-2.084 E0.065 F900
G1 X-11.591 Y-3.106 E0.065 F900
G1 X-11.276 Y-4.104 E0.065 F900
G1 X-10.876 Y-5.071 E0.065 F900
G1 X-10.392 Y-6.000 E0.065 F900
G1 X-9.830 Y-6.883 E0.065 F900
G1 X-9.193 Y-7.713 E0.065 F900
G1 X-8.485 Y-8.485 E0.065 F900
G1 X-7.713 Y-9.193 E0.065 F900
G1 X-6.883 Y-9.830 E0.065 F900
G1 X-6.000 Y-10.392 E0.065 F900
G1 X-5.071 Y-10.876 E0.065 F900
G1 X-4.104 Y-11.276 E0.065 F900
G1 X-3.106 Y-11.591 E0.065 F900
G1 X-2.084 Y-11.818 E0.065 F900
G1 X-1.046 Y-11.954 E0.065 F900
G1 X-0.000 Y-12.000 E0.065 F900
G1 X1.046 Y-11.954 E0.065 F900
G1 X2.084 Y-11.818 E0.065 F900
G1 X3.106 Y-11.591 E0.065 F900
G1 X4.104 Y-11.276 E0.065 F900
G1 X5.071 Y-10.876 E0.065 F900
G1 X6.000 Y-10.392 E0.065 F900
G1 X6.883 Y-9.830 E0.065 F900
G1 X7.713 Y-9.193 E0.065 F900
G1 X8.485 Y-8.485 E0.065 F900
G1 X9.193 Y-7.713 E0.065 F900
G1 X9.830 Y-6.883 E0.065 F900
G1 X10.392 Y-6.000 E0.065 F900
G1 X10.876 Y-5.071 E0.065 F900
G1 X11.276 Y-4.104 E0.065 F900
G1 X11.591 Y-3.106 E0.065 F900
G1 X11.818 Y-2.084 E0.065 F900
G1 X11.954 Y-1.046 E0.065 F900
G1 X12.000 Y-0.000 E0.065 F900
G1 E-0.8 F1800     ; retract
G0 Z10
M621               ; polar mode off
M104 S0
M6 T1              ; change to the spindle
M3 S8000           ; spindle on
G0 X-18 Y0 Z4
G1 Z0.6 F120       ; plunge beside the ring
G1 X18 F150  ; slot through the ring, 0.6 mm deep
G0 Z10
M5
M6 T0              ; put the spindle back, hot end on
G0 X0 Y0 Z40
M114
