; knob, machined from a wax block with the ball-nosed cutter: roughing slabs, then finishing
; @stock wax 24 24 8 -30 0
G28
M6 T1
M3 S9000
G90
; roughing slab at z=6.20 mm (allowance 0.3 mm)
G0 Z12.000
G0 X-41.500 Y-11.500
G1 Z6.200 F90
G1 X-19.100 Y-11.500 Z6.200 F600
G1 X-19.100 Y-9.900 Z6.200 F600
G1 X-41.500 Y-9.900 Z6.200 F600
G1 X-41.500 Y-8.300 Z6.200 F600
G1 X-19.100 Y-8.300 Z6.200 F600
G1 X-19.100 Y-6.700 Z6.200 F600
G1 X-41.500 Y-6.700 Z6.200 F600
G1 X-41.500 Y-5.100 Z6.200 F600
G1 X-33.500 Y-5.100 Z6.200 F600
G1 X-32.700 Y-5.100 Z6.451 F600
G1 X-31.900 Y-5.100 Z6.534 F600
G1 X-31.100 Y-5.100 Z6.481 F600
G1 X-30.300 Y-5.100 Z6.632 F600
G1 X-29.500 Y-5.100 Z6.761 F600
G1 X-28.700 Y-5.100 Z6.694 F600
G1 X-27.900 Y-5.100 Z6.436 F600
G1 X-27.100 Y-5.100 Z6.200 F600
G1 X-19.100 Y-5.100 Z6.200 F600
G1 X-19.100 Y-3.500 Z6.200 F600
G1 X-24.700 Y-3.500 Z6.200 F600
G1 X-26.300 Y-3.500 Z6.782 F600
G1 X-27.100 Y-3.500 Z6.953 F600
G1 X-27.900 Y-3.500 Z7.041 F600
G1 X-28.700 Y-3.500 Z7.272 F600
G1 X-29.500 Y-3.500 Z7.372 F600
G1 X-30.300 Y-3.500 Z7.306 F600
G1 X-31.900 Y-3.500 Z7.233 F600
G1 X-32.700 Y-3.500 Z7.039 F600
G1 X-33.500 Y-3.500 Z6.684 F600
G1 X-34.300 Y-3.500 Z6.259 F600
G1 X-35.100 Y-3.500 Z6.200 F600
G1 X-41.500 Y-3.500 Z6.200 F600
G1 X-41.500 Y-1.900 Z6.200 F600
G1 X-35.900 Y-1.900 Z6.208 F600
G1 X-35.100 Y-1.900 Z6.623 F600
G1 X-34.300 Y-1.900 Z6.952 F600
G1 X-33.500 Y-1.900 Z7.198 F600
G1 X-31.900 Y-1.900 Z7.555 F600
G1 X-31.100 Y-1.900 Z7.695 F600
G1 X-29.500 Y-1.900 Z7.735 F600
G1 X-27.900 Y-1.900 Z7.562 F600
G1 X-27.100 Y-1.900 Z7.380 F600
G1 X-26.300 Y-1.900 Z7.080 F600
G1 X-25.500 Y-1.900 Z6.680 F600
G1 X-24.700 Y-1.900 Z6.201 F600
G1 X-19.100 Y-1.900 Z6.200 F600
G1 X-19.100 Y-0.300 Z6.200 F600
G1 X-23.100 Y-0.300 Z6.200 F600
G1 X-23.900 Y-0.300 Z6.258 F600
G1 X-24.700 Y-0.300 Z6.680 F600
G1 X-25.500 Y-0.300 Z7.032 F600
G1 X-26.300 Y-0.300 Z7.314 F600
G1 X-27.100 Y-0.300 Z7.540 F600
G1 X-27.900 Y-0.300 Z7.703 F600
G1 X-28.700 Y-0.300 Z7.818 F600
G1 X-29.500 Y-0.300 Z7.879 F600
G1 X-30.300 Y-0.300 Z7.889 F600
G1 X-31.100 Y-0.300 Z7.841 F600
G1 X-31.900 Y-0.300 Z7.734 F600
G1 X-32.700 Y-0.300 Z7.552 F600
G1 X-33.500 Y-0.300 Z7.301 F600
G1 X-34.300 Y-0.300 Z6.980 F600
G1 X-35.100 Y-0.300 Z6.567 F600
G1 X-35.900 Y-0.300 Z6.200 F600
G1 X-41.500 Y-0.300 Z6.200 F600
G1 X-41.500 Y1.300 Z6.200 F600
G1 X-36.700 Y1.300 Z6.200 F600
G1 X-35.900 Y1.300 Z6.229 F600
G1 X-35.100 Y1.300 Z6.682 F600
G1 X-34.300 Y1.300 Z7.039 F600
G1 X-33.500 Y1.300 Z7.316 F600
G1 X-32.700 Y1.300 Z7.519 F600
G1 X-31.100 Y1.300 Z7.770 F600
G1 X-30.300 Y1.300 Z7.811 F600
G1 X-29.500 Y1.300 Z7.811 F600
G1 X-28.700 Y1.300 Z7.758 F600
G1 X-27.900 Y1.300 Z7.636 F600
G1 X-27.100 Y1.300 Z7.409 F600
G1 X-25.500 Y1.300 Z6.803 F600
G1 X-24.700 Y1.300 Z6.432 F600
G1 X-23.900 Y1.300 Z6.200 F600
G1 X-19.100 Y1.300 Z6.200 F600
G1 X-19.100 Y2.900 Z6.200 F600
G1 X-24.700 Y2.900 Z6.200 F600
G1 X-25.500 Y2.900 Z6.620 F600
G1 X-26.300 Y2.900 Z6.957 F600
G1 X-27.100 Y2.900 Z7.180 F600
G1 X-27.900 Y2.900 Z7.287 F600
G1 X-29.500 Y2.900 Z7.536 F600
G1 X-30.300 Y2.900 Z7.489 F600
G1 X-31.100 Y2.900 Z7.476 F600
G1 X-31.900 Y2.900 Z7.392 F600
G1 X-32.700 Y2.900 Z7.159 F600
G1 X-33.500 Y2.900 Z6.822 F600
G1 X-34.300 Y2.900 Z6.585 F600
G1 X-35.100 Y2.900 Z6.293 F600
G1 X-35.900 Y2.900 Z6.200 F600
G1 X-41.500 Y2.900 Z6.200 F600
G1 X-41.500 Y4.500 Z6.200 F600
G1 X-34.300 Y4.500 Z6.200 F600
G1 X-33.500 Y4.500 Z6.427 F600
G1 X-32.700 Y4.500 Z6.718 F600
G1 X-31.900 Y4.500 Z6.846 F600
G1 X-31.100 Y4.500 Z6.822 F600
G1 X-29.500 Y4.500 Z7.025 F600
G1 X-28.700 Y4.500 Z6.941 F600
G1 X-27.100 Y4.500 Z6.417 F600
G1 X-26.300 Y4.500 Z6.296 F600
G1 X-25.500 Y4.500 Z6.200 F600
G1 X-19.100 Y4.500 Z6.200 F600
G1 X-19.100 Y6.100 Z6.200 F600
G1 X-28.700 Y6.100 Z6.200 F600
G1 X-29.500 Y6.100 Z6.227 F600
G1 X-30.300 Y6.100 Z6.200 F600
G1 X-41.500 Y6.100 Z6.200 F600
G1 X-41.500 Y7.700 Z6.200 F600
G1 X-19.100 Y7.700 Z6.200 F600
G1 X-19.100 Y9.300 Z6.200 F600
G1 X-41.500 Y9.300 Z6.200 F600
G1 X-41.500 Y10.900 Z6.200 F600
G1 X-19.100 Y10.900 Z6.200 F600
G0 Z12.000
; roughing slab at z=4.40 mm (allowance 0.3 mm)
G0 Z12.000
G0 X-41.500 Y-11.500
G1 Z4.400 F90
G1 X-19.100 Y-11.500 Z4.400 F600
G1 X-19.100 Y-9.900 Z4.400 F600
G1 X-41.500 Y-9.900 Z4.400 F600
G1 X-41.500 Y-8.300 Z4.400 F600
G1 X-30.300 Y-8.300 Z4.400 F600
G1 X-29.500 Y-8.300 Z4.500 F600
G1 X-28.700 Y-8.300 Z4.538 F600
G1 X-27.900 Y-8.300 Z4.400 F600
G1 X-19.100 Y-8.300 Z4.400 F600
G1 X-19.100 Y-6.700 Z4.400 F600
G1 X-25.500 Y-6.700 Z4.400 F600
G1 X-26.300 Y-6.700 Z4.489 F600
G1 X-27.100 Y-6.700 Z5.121 F600
G1 X-27.900 Y-6.700 Z5.583 F600
G1 X-28.700 Y-6.700 Z5.812 F600
G1 X-29.500 Y-6.700 Z5.831 F600
G1 X-30.300 Y-6.700 Z5.645 F600
G1 X-31.100 Y-6.700 Z5.322 F600
G1 X-32.700 Y-6.700 Z5.405 F600
G1 X-33.500 Y-6.700 Z5.260 F600
G1 X-34.300 Y-6.700 Z4.918 F600
G1 X-35.100 Y-6.700 Z4.400 F600
G1 X-41.500 Y-6.700 Z4.400 F600
G1 X-41.500 Y-5.100 Z4.400 F600
G1 X-35.900 Y-5.100 Z4.400 F600
G1 X-35.100 Y-5.100 Z5.123 F600
G1 X-34.300 Y-5.100 Z5.756 F600
G1 X-33.500 Y-5.100 Z6.195 F600
G1 X-32.700 Y-5.100 Z6.451 F600
G1 X-31.900 Y-5.100 Z6.534 F600
G1 X-31.100 Y-5.100 Z6.481 F600
G1 X-30.300 Y-5.100 Z6.632 F600
G1 X-29.500 Y-5.100 Z6.761 F600
G1 X-28.700 Y-5.100 Z6.694 F600
G1 X-27.900 Y-5.100 Z6.436 F600
G1 X-27.100 Y-5.100 Z6.042 F600
G1 X-26.300 Y-5.100 Z5.889 F600
G1 X-25.500 Y-5.100 Z5.712 F600
G1 X-24.700 Y-5.100 Z5.407 F600
G1 X-23.900 Y-5.100 Z4.953 F600
G1 X-23.100 Y-5.100 Z4.400 F600
G1 X-19.100 Y-5.100 Z4.400 F600
G1 X-19.100 Y-3.500 Z4.400 F600
G1 X-22.300 Y-3.500 Z4.400 F600
G1 X-23.100 Y-3.500 Z4.730 F600
G1 X-23.900 Y-3.500 Z5.490 F600
G1 X-24.700 Y-3.500 Z6.055 F600
G1 X-25.500 Y-3.500 Z6.489 F600
G1 X-26.300 Y-3.500 Z6.782 F600
G1 X-27.100 Y-3.500 Z6.953 F600
G1 X-27.900 Y-3.500 Z7.041 F600
G1 X-28.700 Y-3.500 Z7.272 F600
G1 X-29.500 Y-3.500 Z7.372 F600
G1 X-30.300 Y-3.500 Z7.306 F600
G1 X-31.900 Y-3.500 Z7.233 F600
G1 X-32.700 Y-3.500 Z7.039 F600
G1 X-33.500 Y-3.500 Z6.684 F600
G1 X-34.300 Y-3.500 Z6.259 F600
G1 X-35.100 Y-3.500 Z5.954 F600
G1 X-35.900 Y-3.500 Z5.599 F600
G1 X-36.700 Y-3.500 Z5.146 F600
G1 X-37.500 Y-3.500 Z4.575 F600
G1 X-38.300 Y-3.500 Z4.400 F600
G1 X-41.500 Y-3.500 Z4.400 F600
G1 X-41.500 Y-1.900 Z4.400 F600
G1 X-38.300 Y-1.900 Z4.400 F600
G1 X-36.700 Y-1.900 Z5.684 F600
G1 X-35.900 Y-1.900 Z6.208 F600
G1 X-35.100 Y-1.900 Z6.623 F600
G1 X-34.300 Y-1.900 Z6.952 F600
G1 X-33.500 Y-1.900 Z7.198 F600
G1 X-31.900 Y-1.900 Z7.555 F600
G1 X-31.100 Y-1.900 Z7.695 F600
G1 X-29.500 Y-1.900 Z7.735 F600
G1 X-27.900 Y-1.900 Z7.562 F600
G1 X-27.100 Y-1.900 Z7.380 F600
G1 X-26.300 Y-1.900 Z7.080 F600
G1 X-25.500 Y-1.900 Z6.680 F600
G1 X-23.900 Y-1.900 Z5.708 F600
G1 X-23.100 Y-1.900 Z5.146 F600
G1 X-22.300 Y-1.900 Z4.492 F600
G1 X-21.500 Y-1.900 Z4.400 F600
G1 X-19.100 Y-1.900 Z4.400 F600
G1 X-19.100 Y-0.300 Z4.400 F600
G1 X-20.700 Y-0.300 Z4.400 F600
G1 X-21.500 Y-0.300 Z4.418 F600
G1 X-22.300 Y-0.300 Z5.143 F600
G1 X-23.100 Y-0.300 Z5.750 F600
G1 X-23.900 Y-0.300 Z6.258 F600
G1 X-24.700 Y-0.300 Z6.680 F600
G1 X-25.500 Y-0.300 Z7.032 F600
G1 X-26.300 Y-0.300 Z7.314 F600
G1 X-27.100 Y-0.300 Z7.540 F600
G1 X-27.900 Y-0.300 Z7.703 F600
G1 X-28.700 Y-0.300 Z7.818 F600
G1 X-29.500 Y-0.300 Z7.879 F600
G1 X-30.300 Y-0.300 Z7.889 F600
G1 X-31.100 Y-0.300 Z7.841 F600
G1 X-31.900 Y-0.300 Z7.734 F600
G1 X-32.700 Y-0.300 Z7.552 F600
G1 X-33.500 Y-0.300 Z7.301 F600
G1 X-34.300 Y-0.300 Z6.980 F600
G1 X-35.100 Y-0.300 Z6.567 F600
G1 X-35.900 Y-0.300 Z6.063 F600
G1 X-36.700 Y-0.300 Z5.450 F600
G1 X-37.500 Y-0.300 Z4.698 F600
G1 X-38.300 Y-0.300 Z4.400 F600
G1 X-41.500 Y-0.300 Z4.400 F600
G1 X-41.500 Y1.300 Z4.400 F600
G1 X-38.300 Y1.300 Z4.400 F600
G1 X-37.500 Y1.300 Z4.999 F600
G1 X-36.700 Y1.300 Z5.676 F600
G1 X-35.900 Y1.300 Z6.229 F600
G1 X-35.100 Y1.300 Z6.682 F600
G1 X-34.300 Y1.300 Z7.039 F600
G1 X-33.500 Y1.300 Z7.316 F600
G1 X-32.700 Y1.300 Z7.519 F600
G1 X-31.100 Y1.300 Z7.770 F600
G1 X-30.300 Y1.300 Z7.811 F600
G1 X-29.500 Y1.300 Z7.811 F600
G1 X-28.700 Y1.300 Z7.758 F600
G1 X-27.900 Y1.300 Z7.636 F600
G1 X-27.100 Y1.300 Z7.409 F600
G1 X-25.500 Y1.300 Z6.803 F600
G1 X-24.700 Y1.300 Z6.432 F600
G1 X-23.900 Y1.300 Z5.997 F600
G1 X-23.100 Y1.300 Z5.469 F600
G1 X-22.300 Y1.300 Z4.845 F600
G1 X-21.500 Y1.300 Z4.400 F600
G1 X-19.100 Y1.300 Z4.400 F600
G1 X-19.100 Y2.900 Z4.400 F600
G1 X-22.300 Y2.900 Z4.400 F600
G1 X-23.100 Y2.900 Z4.751 F600
G1 X-23.900 Y2.900 Z5.524 F600
G1 X-24.700 Y2.900 Z6.145 F600
G1 X-25.500 Y2.900 Z6.620 F600
G1 X-26.300 Y2.900 Z6.957 F600
G1 X-27.100 Y2.900 Z7.180 F600
G1 X-27.900 Y2.900 Z7.287 F600
G1 X-29.500 Y2.900 Z7.536 F600
G1 X-30.300 Y2.900 Z7.489 F600
G1 X-31.100 Y2.900 Z7.476 F600
G1 X-31.900 Y2.900 Z7.392 F600
G1 X-32.700 Y2.900 Z7.159 F600
G1 X-33.500 Y2.900 Z6.822 F600
G1 X-34.300 Y2.900 Z6.585 F600
G1 X-35.100 Y2.900 Z6.293 F600
G1 X-35.900 Y2.900 Z5.923 F600
G1 X-36.700 Y2.900 Z5.452 F600
G1 X-37.500 Y2.900 Z4.871 F600
G1 X-38.300 Y2.900 Z4.400 F600
G1 X-41.500 Y2.900 Z4.400 F600
G1 X-41.500 Y4.500 Z4.400 F600
G1 X-36.700 Y4.500 Z4.400 F600
G1 X-35.900 Y4.500 Z4.803 F600
G1 X-35.100 Y4.500 Z5.327 F600
G1 X-34.300 Y4.500 Z5.952 F600
G1 X-33.500 Y4.500 Z6.427 F600
G1 X-32.700 Y4.500 Z6.718 F600
G1 X-31.900 Y4.500 Z6.846 F600
G1 X-31.100 Y4.500 Z6.822 F600
G1 X-29.500 Y4.500 Z7.025 F600
G1 X-28.700 Y4.500 Z6.941 F600
G1 X-27.100 Y4.500 Z6.417 F600
G1 X-26.300 Y4.500 Z6.296 F600
G1 X-25.500 Y4.500 Z6.074 F600
G1 X-24.700 Y4.500 Z5.726 F600
G1 X-23.900 Y4.500 Z5.230 F600
G1 X-23.100 Y4.500 Z4.548 F600
G1 X-22.300 Y4.500 Z4.400 F600
G1 X-19.100 Y4.500 Z4.400 F600
G1 X-19.100 Y6.100 Z4.400 F600
G1 X-23.900 Y6.100 Z4.400 F600
G1 X-25.500 Y6.100 Z4.849 F600
G1 X-26.300 Y6.100 Z5.024 F600
G1 X-27.100 Y6.100 Z5.493 F600
G1 X-27.900 Y6.100 Z5.940 F600
G1 X-28.700 Y6.100 Z6.185 F600
G1 X-29.500 Y6.100 Z6.227 F600
G1 X-30.300 Y6.100 Z6.060 F600
G1 X-31.100 Y6.100 Z5.792 F600
G1 X-31.900 Y6.100 Z5.865 F600
G1 X-32.700 Y6.100 Z5.858 F600
G1 X-33.500 Y6.100 Z5.680 F600
G1 X-34.300 Y6.100 Z5.290 F600
G1 X-35.100 Y6.100 Z4.691 F600
G1 X-35.900 Y6.100 Z4.400 F600
G1 X-41.500 Y6.100 Z4.400 F600
G1 X-41.500 Y7.700 Z4.400 F600
G1 X-33.500 Y7.700 Z4.400 F600
G1 X-32.700 Y7.700 Z4.439 F600
G1 X-31.900 Y7.700 Z4.400 F600
G1 X-31.100 Y7.700 Z4.400 F600
G1 X-30.300 Y7.700 Z4.810 F600
G1 X-29.500 Y7.700 Z5.058 F600
G1 X-28.700 Y7.700 Z5.072 F600
G1 X-27.900 Y7.700 Z4.843 F600
G1 X-27.100 Y7.700 Z4.400 F600
G1 X-19.100 Y7.700 Z4.400 F600
G1 X-19.100 Y9.300 Z4.400 F600
G1 X-41.500 Y9.300 Z4.400 F600
G1 X-41.500 Y10.900 Z4.400 F600
G1 X-19.100 Y10.900 Z4.400 F600
G0 Z12.000
; roughing slab at z=2.60 mm (allowance 0.3 mm)
G0 Z12.000
G0 X-41.500 Y-11.500
G1 Z2.600 F90
G1 X-19.100 Y-11.500 Z2.600 F600
G1 X-19.100 Y-9.900 Z2.600 F600
G1 X-41.500 Y-9.900 Z2.600 F600
G1 X-41.500 Y-8.300 Z2.600 F600
G1 X-35.100 Y-8.300 Z2.600 F600
G1 X-34.300 Y-8.300 Z3.302 F600
G1 X-33.500 Y-8.300 Z3.673 F600
G1 X-32.700 Y-8.300 Z3.696 F600
G1 X-31.900 Y-8.300 Z3.555 F600
G1 X-31.100 Y-8.300 Z3.714 F600
G1 X-30.300 Y-8.300 Z4.200 F600
G1 X-29.500 Y-8.300 Z4.500 F600
G1 X-28.700 Y-8.300 Z4.538 F600
G1 X-27.900 Y-8.300 Z4.318 F600
G1 X-27.100 Y-8.300 Z3.832 F600
G1 X-26.300 Y-8.300 Z2.600 F600
G1 X-19.100 Y-8.300 Z2.600 F600
G1 X-19.100 Y-6.700 Z2.600 F600
G1 X-23.100 Y-6.700 Z2.600 F600
G1 X-23.900 Y-6.700 Z3.558 F600
G1 X-24.700 Y-6.700 Z3.965 F600
G1 X-25.500 Y-6.700 Z4.175 F600
G1 X-26.300 Y-6.700 Z4.489 F600
G1 X-27.100 Y-6.700 Z5.121 F600
G1 X-27.900 Y-6.700 Z5.583 F600
G1 X-28.700 Y-6.700 Z5.812 F600
G1 X-29.500 Y-6.700 Z5.831 F600
G1 X-30.300 Y-6.700 Z5.645 F600
G1 X-31.100 Y-6.700 Z5.322 F600
G1 X-32.700 Y-6.700 Z5.405 F600
G1 X-33.500 Y-6.700 Z5.260 F600
G1 X-34.300 Y-6.700 Z4.918 F600
G1 X-35.100 Y-6.700 Z4.350 F600
G1 X-35.900 Y-6.700 Z3.435 F600
G1 X-36.700 Y-6.700 Z2.600 F600
G1 X-41.500 Y-6.700 Z2.600 F600
G1 X-41.500 Y-5.100 Z2.600 F600
G1 X-37.500 Y-5.100 Z2.600 F600
G1 X-36.700 Y-5.100 Z3.669 F600
G1 X-35.900 Y-5.100 Z4.330 F600
G1 X-35.100 Y-5.100 Z5.123 F600
G1 X-34.300 Y-5.100 Z5.756 F600
G1 X-33.500 Y-5.100 Z6.195 F600
G1 X-32.700 Y-5.100 Z6.451 F600
G1 X-31.900 Y-5.100 Z6.534 F600
G1 X-31.100 Y-5.100 Z6.481 F600
G1 X-30.300 Y-5.100 Z6.632 F600
G1 X-29.500 Y-5.100 Z6.761 F600
G1 X-28.700 Y-5.100 Z6.694 F600
G1 X-27.900 Y-5.100 Z6.436 F600
G1 X-27.100 Y-5.100 Z6.042 F600
G1 X-26.300 Y-5.100 Z5.889 F600
G1 X-25.500 Y-5.100 Z5.712 F600
G1 X-24.700 Y-5.100 Z5.407 F600
G1 X-23.900 Y-5.100 Z4.953 F600
G1 X-23.100 Y-5.100 Z4.311 F600
G1 X-22.300 Y-5.100 Z3.373 F600
G1 X-21.500 Y-5.100 Z2.600 F600
G1 X-19.100 Y-5.100 Z2.600 F600
G1 X-19.100 Y-3.500 Z2.600 F600
G1 X-21.500 Y-3.500 Z2.600 F600
G1 X-22.300 Y-3.500 Z3.749 F600
G1 X-23.100 Y-3.500 Z4.730 F600
G1 X-23.900 Y-3.500 Z5.490 F600
G1 X-24.700 Y-3.500 Z6.055 F600
G1 X-25.500 Y-3.500 Z6.489 F600
G1 X-26.300 Y-3.500 Z6.782 F600
G1 X-27.100 Y-3.500 Z6.953 F600
G1 X-27.900 Y-3.500 Z7.041 F600
G1 X-28.700 Y-3.500 Z7.272 F600
G1 X-29.500 Y-3.500 Z7.372 F600
G1 X-30.300 Y-3.500 Z7.306 F600
G1 X-31.900 Y-3.500 Z7.233 F600
G1 X-32.700 Y-3.500 Z7.039 F600
G1 X-33.500 Y-3.500 Z6.684 F600
G1 X-34.300 Y-3.500 Z6.259 F600
G1 X-35.100 Y-3.500 Z5.954 F600
G1 X-35.900 Y-3.500 Z5.599 F600
G1 X-36.700 Y-3.500 Z5.146 F600
G1 X-37.500 Y-3.500 Z4.575 F600
G1 X-38.300 Y-3.500 Z3.864 F600
G1 X-39.100 Y-3.500 Z2.600 F600
G1 X-41.500 Y-3.500 Z2.600 F600
G1 X-41.500 Y-1.900 Z2.600 F600
G1 X-39.100 Y-1.900 Z2.600 F600
G1 X-38.300 Y-1.900 Z4.261 F600
G1 X-37.500 Y-1.900 Z5.049 F600
G1 X-36.700 Y-1.900 Z5.684 F600
G1 X-35.900 Y-1.900 Z6.208 F600
G1 X-35.100 Y-1.900 Z6.623 F600
G1 X-34.300 Y-1.900 Z6.952 F600
G1 X-33.500 Y-1.900 Z7.198 F600
G1 X-31.900 Y-1.900 Z7.555 F600
G1 X-31.100 Y-1.900 Z7.695 F600
G1 X-29.500 Y-1.900 Z7.735 F600
G1 X-27.900 Y-1.900 Z7.562 F600
G1 X-27.100 Y-1.900 Z7.380 F600
G1 X-26.300 Y-1.900 Z7.080 F600
G1 X-25.500 Y-1.900 Z6.680 F600
G1 X-23.900 Y-1.900 Z5.708 F600
G1 X-23.100 Y-1.900 Z5.146 F600
G1 X-22.300 Y-1.900 Z4.492 F600
G1 X-21.500 Y-1.900 Z3.671 F600
G1 X-20.700 Y-1.900 Z2.600 F600
G1 X-19.100 Y-1.900 Z2.600 F600
G1 X-19.100 Y-0.300 Z2.600 F600
G1 X-19.900 Y-0.300 Z2.600 F600
G1 X-20.700 Y-0.300 Z3.216 F600
G1 X-21.500 Y-0.300 Z4.418 F600
G1 X-22.300 Y-0.300 Z5.143 F600
G1 X-23.100 Y-0.300 Z5.750 F600
G1 X-23.900 Y-0.300 Z6.258 F600
G1 X-24.700 Y-0.300 Z6.680 F600
G1 X-25.500 Y-0.300 Z7.032 F600
G1 X-26.300 Y-0.300 Z7.314 F600
G1 X-27.100 Y-0.300 Z7.540 F600
G1 X-27.900 Y-0.300 Z7.703 F600
G1 X-28.700 Y-0.300 Z7.818 F600
G1 X-29.500 Y-0.300 Z7.879 F600
G1 X-30.300 Y-0.300 Z7.889 F600
G1 X-31.100 Y-0.300 Z7.841 F600
G1 X-31.900 Y-0.300 Z7.734 F600
G1 X-32.700 Y-0.300 Z7.552 F600
G1 X-33.500 Y-0.300 Z7.301 F600
G1 X-34.300 Y-0.300 Z6.980 F600
G1 X-35.100 Y-0.300 Z6.567 F600
G1 X-35.900 Y-0.300 Z6.063 F600
G1 X-36.700 Y-0.300 Z5.450 F600
G1 X-37.500 Y-0.300 Z4.698 F600
G1 X-38.300 Y-0.300 Z3.773 F600
G1 X-39.100 Y-0.300 Z2.600 F600
G1 X-41.500 Y-0.300 Z2.600 F600
G1 X-41.500 Y1.300 Z2.600 F600
G1 X-39.100 Y1.300 Z2.600 F600
G1 X-38.300 Y1.300 Z4.154 F600
G1 X-37.500 Y1.300 Z4.999 F600
G1 X-36.700 Y1.300 Z5.676 F600
G1 X-35.900 Y1.300 Z6.229 F600
G1 X-35.100 Y1.300 Z6.682 F600
G1 X-34.300 Y1.300 Z7.039 F600
G1 X-33.500 Y1.300 Z7.316 F600
G1 X-32.700 Y1.300 Z7.519 F600
G1 X-31.100 Y1.300 Z7.770 F600
G1 X-30.300 Y1.300 Z7.811 F600
G1 X-29.500 Y1.300 Z7.811 F600
G1 X-28.700 Y1.300 Z7.758 F600
G1 X-27.900 Y1.300 Z7.636 F600
G1 X-27.100 Y1.300 Z7.409 F600
G1 X-25.500 Y1.300 Z6.803 F600
G1 X-24.700 Y1.300 Z6.432 F600
G1 X-23.900 Y1.300 Z5.997 F600
G1 X-23.100 Y1.300 Z5.469 F600
G1 X-22.300 Y1.300 Z4.845 F600
G1 X-21.500 Y1.300 Z4.080 F600
G1 X-20.700 Y1.300 Z2.600 F600
G1 X-19.100 Y1.300 Z2.600 F600
G1 X-19.100 Y2.900 Z2.600 F600
G1 X-21.500 Y2.900 Z2.600 F600
G1 X-22.300 Y2.900 Z3.797 F600
G1 X-23.100 Y2.900 Z4.751 F600
G1 X-23.900 Y2.900 Z5.524 F600
G1 X-24.700 Y2.900 Z6.145 F600
G1 X-25.500 Y2.900 Z6.620 F600
G1 X-26.300 Y2.900 Z6.957 F600
G1 X-27.100 Y2.900 Z7.180 F600
G1 X-27.900 Y2.900 Z7.287 F600
G1 X-29.500 Y2.900 Z7.536 F600
G1 X-30.300 Y2.900 Z7.489 F600
G1 X-31.100 Y2.900 Z7.476 F600
G1 X-31.900 Y2.900 Z7.392 F600
G1 X-32.700 Y2.900 Z7.159 F600
G1 X-33.500 Y2.900 Z6.822 F600
G1 X-34.300 Y2.900 Z6.585 F600
G1 X-35.100 Y2.900 Z6.293 F600
G1 X-35.900 Y2.900 Z5.923 F600
G1 X-36.700 Y2.900 Z5.452 F600
G1 X-37.500 Y2.900 Z4.871 F600
G1 X-38.300 Y2.900 Z4.127 F600
G1 X-39.100 Y2.900 Z2.600 F600
G1 X-41.500 Y2.900 Z2.600 F600
G1 X-41.500 Y4.500 Z2.600 F600
G1 X-38.300 Y4.500 Z2.600 F600
G1 X-37.500 Y4.500 Z3.766 F600
G1 X-36.700 Y4.500 Z4.340 F600
G1 X-35.900 Y4.500 Z4.803 F600
G1 X-35.100 Y4.500 Z5.327 F600
G1 X-34.300 Y4.500 Z5.952 F600
G1 X-33.500 Y4.500 Z6.427 F600
G1 X-32.700 Y4.500 Z6.718 F600
G1 X-31.900 Y4.500 Z6.846 F600
G1 X-31.100 Y4.500 Z6.822 F600
G1 X-29.500 Y4.500 Z7.025 F600
G1 X-28.700 Y4.500 Z6.941 F600
G1 X-27.100 Y4.500 Z6.417 F600
G1 X-26.300 Y4.500 Z6.296 F600
G1 X-25.500 Y4.500 Z6.074 F600
G1 X-24.700 Y4.500 Z5.726 F600
G1 X-23.900 Y4.500 Z5.230 F600
G1 X-23.100 Y4.500 Z4.548 F600
G1 X-22.300 Y4.500 Z3.628 F600
G1 X-21.500 Y4.500 Z2.600 F600
G1 X-19.100 Y4.500 Z2.600 F600
G1 X-19.100 Y6.100 Z2.600 F600
G1 X-22.300 Y6.100 Z2.600 F600
G1 X-23.100 Y6.100 Z3.580 F600
G1 X-23.900 Y6.100 Z4.224 F600
G1 X-24.700 Y6.100 Z4.615 F600
G1 X-25.500 Y6.100 Z4.849 F600
G1 X-26.300 Y6.100 Z5.024 F600
G1 X-27.100 Y6.100 Z5.493 F600
G1 X-27.900 Y6.100 Z5.940 F600
G1 X-28.700 Y6.100 Z6.185 F600
G1 X-29.500 Y6.100 Z6.227 F600
G1 X-30.300 Y6.100 Z6.060 F600
G1 X-31.100 Y6.100 Z5.792 F600
G1 X-31.900 Y6.100 Z5.865 F600
G1 X-32.700 Y6.100 Z5.858 F600
G1 X-33.500 Y6.100 Z5.680 F600
G1 X-34.300 Y6.100 Z5.290 F600
G1 X-35.100 Y6.100 Z4.691 F600
G1 X-35.900 Y6.100 Z3.844 F600
G1 X-36.700 Y6.100 Z2.600 F600
G1 X-41.500 Y6.100 Z2.600 F600
G1 X-41.500 Y7.700 Z2.600 F600
G1 X-35.900 Y7.700 Z2.600 F600
G1 X-35.100 Y7.700 Z3.564 F600
G1 X-34.300 Y7.700 Z4.113 F600
G1 X-33.500 Y7.700 Z4.378 F600
G1 X-32.700 Y7.700 Z4.439 F600
G1 X-31.900 Y7.700 Z4.339 F600
G1 X-31.100 Y7.700 Z4.390 F600
G1 X-30.300 Y7.700 Z4.810 F600
G1 X-29.500 Y7.700 Z5.058 F600
G1 X-28.700 Y7.700 Z5.072 F600
G1 X-27.900 Y7.700 Z4.843 F600
G1 X-27.100 Y7.700 Z4.378 F600
G1 X-26.300 Y7.700 Z3.600 F600
G1 X-25.500 Y7.700 Z2.600 F600
G1 X-19.100 Y7.700 Z2.600 F600
G1 X-19.100 Y9.300 Z2.600 F600
G1 X-41.500 Y9.300 Z2.600 F600
G1 X-41.500 Y10.900 Z2.600 F600
G1 X-19.100 Y10.900 Z2.600 F600
G0 Z12.000
; roughing slab at z=1.00 mm (allowance 0.3 mm)
G0 Z12.000
G0 X-41.500 Y-11.500
G1 Z1.000 F90
G1 X-19.100 Y-11.500 Z1.000 F600
G1 X-19.100 Y-9.900 Z1.000 F600
G1 X-41.500 Y-9.900 Z1.000 F600
G1 X-41.500 Y-8.300 Z1.000 F600
G1 X-35.100 Y-8.300 Z1.000 F600
G1 X-34.300 Y-8.300 Z3.302 F600
G1 X-33.500 Y-8.300 Z3.673 F600
G1 X-32.700 Y-8.300 Z3.696 F600
G1 X-31.900 Y-8.300 Z3.555 F600
G1 X-31.100 Y-8.300 Z3.714 F600
G1 X-30.300 Y-8.300 Z4.200 F600
G1 X-29.500 Y-8.300 Z4.500 F600
G1 X-28.700 Y-8.300 Z4.538 F600
G1 X-27.900 Y-8.300 Z4.318 F600
G1 X-27.100 Y-8.300 Z3.832 F600
G1 X-26.300 Y-8.300 Z1.000 F600
G1 X-19.100 Y-8.300 Z1.000 F600
G1 X-19.100 Y-6.700 Z1.000 F600
G1 X-23.100 Y-6.700 Z1.000 F600
G1 X-23.900 Y-6.700 Z3.558 F600
G1 X-24.700 Y-6.700 Z3.965 F600
G1 X-25.500 Y-6.700 Z4.175 F600
G1 X-26.300 Y-6.700 Z4.489 F600
G1 X-27.100 Y-6.700 Z5.121 F600
G1 X-27.900 Y-6.700 Z5.583 F600
G1 X-28.700 Y-6.700 Z5.812 F600
G1 X-29.500 Y-6.700 Z5.831 F600
G1 X-30.300 Y-6.700 Z5.645 F600
G1 X-31.100 Y-6.700 Z5.322 F600
G1 X-32.700 Y-6.700 Z5.405 F600
G1 X-33.500 Y-6.700 Z5.260 F600
G1 X-34.300 Y-6.700 Z4.918 F600
G1 X-35.100 Y-6.700 Z4.350 F600
G1 X-35.900 Y-6.700 Z3.435 F600
G1 X-36.700 Y-6.700 Z1.000 F600
G1 X-41.500 Y-6.700 Z1.000 F600
G1 X-41.500 Y-5.100 Z1.000 F600
G1 X-37.500 Y-5.100 Z1.000 F600
G1 X-36.700 Y-5.100 Z3.669 F600
G1 X-35.900 Y-5.100 Z4.330 F600
G1 X-35.100 Y-5.100 Z5.123 F600
G1 X-34.300 Y-5.100 Z5.756 F600
G1 X-33.500 Y-5.100 Z6.195 F600
G1 X-32.700 Y-5.100 Z6.451 F600
G1 X-31.900 Y-5.100 Z6.534 F600
G1 X-31.100 Y-5.100 Z6.481 F600
G1 X-30.300 Y-5.100 Z6.632 F600
G1 X-29.500 Y-5.100 Z6.761 F600
G1 X-28.700 Y-5.100 Z6.694 F600
G1 X-27.900 Y-5.100 Z6.436 F600
G1 X-27.100 Y-5.100 Z6.042 F600
G1 X-26.300 Y-5.100 Z5.889 F600
G1 X-25.500 Y-5.100 Z5.712 F600
G1 X-24.700 Y-5.100 Z5.407 F600
G1 X-23.900 Y-5.100 Z4.953 F600
G1 X-23.100 Y-5.100 Z4.311 F600
G1 X-22.300 Y-5.100 Z3.373 F600
G1 X-21.500 Y-5.100 Z1.000 F600
G1 X-19.100 Y-5.100 Z1.000 F600
G1 X-19.100 Y-3.500 Z1.000 F600
G1 X-21.500 Y-3.500 Z1.000 F600
G1 X-22.300 Y-3.500 Z3.749 F600
G1 X-23.100 Y-3.500 Z4.730 F600
G1 X-23.900 Y-3.500 Z5.490 F600
G1 X-24.700 Y-3.500 Z6.055 F600
G1 X-25.500 Y-3.500 Z6.489 F600
G1 X-26.300 Y-3.500 Z6.782 F600
G1 X-27.100 Y-3.500 Z6.953 F600
G1 X-27.900 Y-3.500 Z7.041 F600
G1 X-28.700 Y-3.500 Z7.272 F600
G1 X-29.500 Y-3.500 Z7.372 F600
G1 X-30.300 Y-3.500 Z7.306 F600
G1 X-31.900 Y-3.500 Z7.233 F600
G1 X-32.700 Y-3.500 Z7.039 F600
G1 X-33.500 Y-3.500 Z6.684 F600
G1 X-34.300 Y-3.500 Z6.259 F600
G1 X-35.100 Y-3.500 Z5.954 F600
G1 X-35.900 Y-3.500 Z5.599 F600
G1 X-36.700 Y-3.500 Z5.146 F600
G1 X-37.500 Y-3.500 Z4.575 F600
G1 X-38.300 Y-3.500 Z3.864 F600
G1 X-39.100 Y-3.500 Z1.000 F600
G1 X-41.500 Y-3.500 Z1.000 F600
G1 X-41.500 Y-1.900 Z1.000 F600
G1 X-39.100 Y-1.900 Z1.000 F600
G1 X-38.300 Y-1.900 Z4.261 F600
G1 X-37.500 Y-1.900 Z5.049 F600
G1 X-36.700 Y-1.900 Z5.684 F600
G1 X-35.900 Y-1.900 Z6.208 F600
G1 X-35.100 Y-1.900 Z6.623 F600
G1 X-34.300 Y-1.900 Z6.952 F600
G1 X-33.500 Y-1.900 Z7.198 F600
G1 X-31.900 Y-1.900 Z7.555 F600
G1 X-31.100 Y-1.900 Z7.695 F600
G1 X-29.500 Y-1.900 Z7.735 F600
G1 X-27.900 Y-1.900 Z7.562 F600
G1 X-27.100 Y-1.900 Z7.380 F600
G1 X-26.300 Y-1.900 Z7.080 F600
G1 X-25.500 Y-1.900 Z6.680 F600
G1 X-23.900 Y-1.900 Z5.708 F600
G1 X-23.100 Y-1.900 Z5.146 F600
G1 X-22.300 Y-1.900 Z4.492 F600
G1 X-21.500 Y-1.900 Z3.671 F600
G1 X-20.700 Y-1.900 Z1.000 F600
G1 X-19.100 Y-1.900 Z1.000 F600
G1 X-19.100 Y-0.300 Z1.000 F600
G1 X-19.900 Y-0.300 Z1.000 F600
G1 X-20.700 Y-0.300 Z3.216 F600
G1 X-21.500 Y-0.300 Z4.418 F600
G1 X-22.300 Y-0.300 Z5.143 F600
G1 X-23.100 Y-0.300 Z5.750 F600
G1 X-23.900 Y-0.300 Z6.258 F600
G1 X-24.700 Y-0.300 Z6.680 F600
G1 X-25.500 Y-0.300 Z7.032 F600
G1 X-26.300 Y-0.300 Z7.314 F600
G1 X-27.100 Y-0.300 Z7.540 F600
G1 X-27.900 Y-0.300 Z7.703 F600
G1 X-28.700 Y-0.300 Z7.818 F600
G1 X-29.500 Y-0.300 Z7.879 F600
G1 X-30.300 Y-0.300 Z7.889 F600
G1 X-31.100 Y-0.300 Z7.841 F600
G1 X-31.900 Y-0.300 Z7.734 F600
G1 X-32.700 Y-0.300 Z7.552 F600
G1 X-33.500 Y-0.300 Z7.301 F600
G1 X-34.300 Y-0.300 Z6.980 F600
G1 X-35.100 Y-0.300 Z6.567 F600
G1 X-35.900 Y-0.300 Z6.063 F600
G1 X-36.700 Y-0.300 Z5.450 F600
G1 X-37.500 Y-0.300 Z4.698 F600
G1 X-38.300 Y-0.300 Z3.773 F600
G1 X-39.100 Y-0.300 Z1.000 F600
G1 X-41.500 Y-0.300 Z1.000 F600
G1 X-41.500 Y1.300 Z1.000 F600
G1 X-39.100 Y1.300 Z1.000 F600
G1 X-38.300 Y1.300 Z4.154 F600
G1 X-37.500 Y1.300 Z4.999 F600
G1 X-36.700 Y1.300 Z5.676 F600
G1 X-35.900 Y1.300 Z6.229 F600
G1 X-35.100 Y1.300 Z6.682 F600
G1 X-34.300 Y1.300 Z7.039 F600
G1 X-33.500 Y1.300 Z7.316 F600
G1 X-32.700 Y1.300 Z7.519 F600
G1 X-31.100 Y1.300 Z7.770 F600
G1 X-30.300 Y1.300 Z7.811 F600
G1 X-29.500 Y1.300 Z7.811 F600
G1 X-28.700 Y1.300 Z7.758 F600
G1 X-27.900 Y1.300 Z7.636 F600
G1 X-27.100 Y1.300 Z7.409 F600
G1 X-25.500 Y1.300 Z6.803 F600
G1 X-24.700 Y1.300 Z6.432 F600
G1 X-23.900 Y1.300 Z5.997 F600
G1 X-23.100 Y1.300 Z5.469 F600
G1 X-22.300 Y1.300 Z4.845 F600
G1 X-21.500 Y1.300 Z4.080 F600
G1 X-20.700 Y1.300 Z1.000 F600
G1 X-19.100 Y1.300 Z1.000 F600
G1 X-19.100 Y2.900 Z1.000 F600
G1 X-21.500 Y2.900 Z1.000 F600
G1 X-22.300 Y2.900 Z3.797 F600
G1 X-23.100 Y2.900 Z4.751 F600
G1 X-23.900 Y2.900 Z5.524 F600
G1 X-24.700 Y2.900 Z6.145 F600
G1 X-25.500 Y2.900 Z6.620 F600
G1 X-26.300 Y2.900 Z6.957 F600
G1 X-27.100 Y2.900 Z7.180 F600
G1 X-27.900 Y2.900 Z7.287 F600
G1 X-29.500 Y2.900 Z7.536 F600
G1 X-30.300 Y2.900 Z7.489 F600
G1 X-31.100 Y2.900 Z7.476 F600
G1 X-31.900 Y2.900 Z7.392 F600
G1 X-32.700 Y2.900 Z7.159 F600
G1 X-33.500 Y2.900 Z6.822 F600
G1 X-34.300 Y2.900 Z6.585 F600
G1 X-35.100 Y2.900 Z6.293 F600
G1 X-35.900 Y2.900 Z5.923 F600
G1 X-36.700 Y2.900 Z5.452 F600
G1 X-37.500 Y2.900 Z4.871 F600
G1 X-38.300 Y2.900 Z4.127 F600
G1 X-39.100 Y2.900 Z1.000 F600
G1 X-41.500 Y2.900 Z1.000 F600
G1 X-41.500 Y4.500 Z1.000 F600
G1 X-38.300 Y4.500 Z1.000 F600
G1 X-37.500 Y4.500 Z3.766 F600
G1 X-36.700 Y4.500 Z4.340 F600
G1 X-35.900 Y4.500 Z4.803 F600
G1 X-35.100 Y4.500 Z5.327 F600
G1 X-34.300 Y4.500 Z5.952 F600
G1 X-33.500 Y4.500 Z6.427 F600
G1 X-32.700 Y4.500 Z6.718 F600
G1 X-31.900 Y4.500 Z6.846 F600
G1 X-31.100 Y4.500 Z6.822 F600
G1 X-29.500 Y4.500 Z7.025 F600
G1 X-28.700 Y4.500 Z6.941 F600
G1 X-27.100 Y4.500 Z6.417 F600
G1 X-26.300 Y4.500 Z6.296 F600
G1 X-25.500 Y4.500 Z6.074 F600
G1 X-24.700 Y4.500 Z5.726 F600
G1 X-23.900 Y4.500 Z5.230 F600
G1 X-23.100 Y4.500 Z4.548 F600
G1 X-22.300 Y4.500 Z3.628 F600
G1 X-21.500 Y4.500 Z1.000 F600
G1 X-19.100 Y4.500 Z1.000 F600
G1 X-19.100 Y6.100 Z1.000 F600
G1 X-22.300 Y6.100 Z1.000 F600
G1 X-23.100 Y6.100 Z3.580 F600
G1 X-23.900 Y6.100 Z4.224 F600
G1 X-24.700 Y6.100 Z4.615 F600
G1 X-25.500 Y6.100 Z4.849 F600
G1 X-26.300 Y6.100 Z5.024 F600
G1 X-27.100 Y6.100 Z5.493 F600
G1 X-27.900 Y6.100 Z5.940 F600
G1 X-28.700 Y6.100 Z6.185 F600
G1 X-29.500 Y6.100 Z6.227 F600
G1 X-30.300 Y6.100 Z6.060 F600
G1 X-31.100 Y6.100 Z5.792 F600
G1 X-31.900 Y6.100 Z5.865 F600
G1 X-32.700 Y6.100 Z5.858 F600
G1 X-33.500 Y6.100 Z5.680 F600
G1 X-34.300 Y6.100 Z5.290 F600
G1 X-35.100 Y6.100 Z4.691 F600
G1 X-35.900 Y6.100 Z3.844 F600
G1 X-36.700 Y6.100 Z1.000 F600
G1 X-41.500 Y6.100 Z1.000 F600
G1 X-41.500 Y7.700 Z1.000 F600
G1 X-35.900 Y7.700 Z1.000 F600
G1 X-35.100 Y7.700 Z3.564 F600
G1 X-34.300 Y7.700 Z4.113 F600
G1 X-33.500 Y7.700 Z4.378 F600
G1 X-32.700 Y7.700 Z4.439 F600
G1 X-31.900 Y7.700 Z4.339 F600
G1 X-31.100 Y7.700 Z4.390 F600
G1 X-30.300 Y7.700 Z4.810 F600
G1 X-29.500 Y7.700 Z5.058 F600
G1 X-28.700 Y7.700 Z5.072 F600
G1 X-27.900 Y7.700 Z4.843 F600
G1 X-27.100 Y7.700 Z4.378 F600
G1 X-26.300 Y7.700 Z3.600 F600
G1 X-25.500 Y7.700 Z1.000 F600
G1 X-19.100 Y7.700 Z1.000 F600
G1 X-19.100 Y9.300 Z1.000 F600
G1 X-41.500 Y9.300 Z1.000 F600
G1 X-41.500 Y10.900 Z1.000 F600
G1 X-19.100 Y10.900 Z1.000 F600
G0 Z12.000
; finishing, ball R1.5875 mm, stepover 0.45 mm
G0 Z12.000
G0 X-32.339 Y-9.384
G1 Z1.000 F90
G1 X-27.939 Y-9.384 Z1.000 F600
G1 X-26.339 Y-8.934 Z1.000 F600
G1 X-27.139 Y-8.934 Z1.000 F600
G1 X-27.539 Y-8.934 Z3.037 F600
G1 X-27.939 Y-8.934 Z3.367 F600
G1 X-28.339 Y-8.934 Z3.503 F600
G1 X-28.739 Y-8.934 Z3.569 F600
G1 X-29.139 Y-8.934 Z3.557 F600
G1 X-29.539 Y-8.934 Z3.488 F600
G1 X-30.339 Y-8.934 Z3.040 F600
G1 X-30.739 Y-8.934 Z1.000 F600
G1 X-33.539 Y-8.934 Z1.000 F600
G1 X-34.339 Y-8.484 Z1.000 F600
G1 X-33.939 Y-8.484 Z2.755 F600
G1 X-33.539 Y-8.484 Z2.930 F600
G1 X-33.139 Y-8.484 Z2.981 F600
G1 X-32.739 Y-8.484 Z2.959 F600
G1 X-32.339 Y-8.484 Z2.901 F600
G1 X-31.939 Y-8.484 Z2.818 F600
G1 X-31.539 Y-8.484 Z2.685 F600
G1 X-31.139 Y-8.484 Z3.089 F600
G1 X-30.739 Y-8.484 Z3.430 F600
G1 X-30.339 Y-8.484 Z3.676 F600
G1 X-29.939 Y-8.484 Z3.859 F600
G1 X-29.539 Y-8.484 Z4.000 F600
G1 X-29.139 Y-8.484 Z4.054 F600
G1 X-28.739 Y-8.484 Z4.065 F600
G1 X-28.339 Y-8.484 Z3.984 F600
G1 X-27.939 Y-8.484 Z3.857 F600
G1 X-27.539 Y-8.484 Z3.650 F600
G1 X-27.139 Y-8.484 Z3.360 F600
G1 X-26.739 Y-8.484 Z1.000 F600
G1 X-25.539 Y-8.484 Z1.000 F600
G1 X-24.739 Y-8.034 Z1.000 F600
G1 X-25.939 Y-8.034 Z1.000 F600
G1 X-26.339 Y-8.034 Z2.833 F600
G1 X-26.739 Y-8.034 Z3.482 F600
G1 X-27.139 Y-8.034 Z3.809 F600
G1 X-27.539 Y-8.034 Z4.073 F600
G1 X-27.939 Y-8.034 Z4.278 F600
G1 X-28.339 Y-8.034 Z4.412 F600
G1 X-28.739 Y-8.034 Z4.490 F600
G1 X-29.139 Y-8.034 Z4.493 F600
G1 X-29.539 Y-8.034 Z4.449 F600
G1 X-29.939 Y-8.034 Z4.335 F600
G1 X-30.339 Y-8.034 Z4.164 F600
G1 X-31.139 Y-8.034 Z3.701 F600
G1 X-31.539 Y-8.034 Z3.571 F600
G1 X-32.339 Y-8.034 Z3.707 F600
G1 X-32.739 Y-8.034 Z3.752 F600
G1 X-33.139 Y-8.034 Z3.758 F600
G1 X-33.539 Y-8.034 Z3.699 F600
G1 X-33.939 Y-8.034 Z3.604 F600
G1 X-34.339 Y-8.034 Z3.414 F600
G1 X-34.739 Y-8.034 Z3.107 F600
G1 X-35.139 Y-8.034 Z1.000 F600
G1 X-35.939 Y-7.584 Z1.000 F600
G1 X-35.539 Y-7.584 Z1.000 F600
G1 X-35.139 Y-7.584 Z3.330 F600
G1 X-34.739 Y-7.584 Z3.648 F600
G1 X-34.339 Y-7.584 Z3.894 F600
G1 X-33.939 Y-7.584 Z4.069 F600
G1 X-33.539 Y-7.584 Z4.191 F600
G1 X-33.139 Y-7.584 Z4.248 F600
G1 X-32.739 Y-7.584 Z4.265 F600
G1 X-32.339 Y-7.584 Z4.246 F600
G1 X-31.539 Y-7.584 Z4.115 F600
G1 X-31.139 Y-7.584 Z4.189 F600
G1 X-30.339 Y-7.584 Z4.601 F600
G1 X-29.939 Y-7.584 Z4.754 F600
G1 X-29.539 Y-7.584 Z4.848 F600
G1 X-29.139 Y-7.584 Z4.891 F600
G1 X-28.739 Y-7.584 Z4.872 F600
G1 X-28.339 Y-7.584 Z4.799 F600
G1 X-27.939 Y-7.584 Z4.655 F600
G1 X-27.539 Y-7.584 Z4.462 F600
G1 X-27.139 Y-7.584 Z4.200 F600
G1 X-26.739 Y-7.584 Z3.877 F600
G1 X-26.339 Y-7.584 Z3.486 F600
G1 X-25.939 Y-7.584 Z2.921 F600
G1 X-25.539 Y-7.584 Z1.000 F600
G1 X-24.339 Y-7.584 Z1.000 F600
G1 X-23.539 Y-7.134 Z1.000 F600
G1 X-24.339 Y-7.134 Z1.000 F600
G1 X-24.739 Y-7.134 Z3.004 F600
G1 X-25.139 Y-7.134 Z3.190 F600
G1 X-25.539 Y-7.134 Z3.296 F600
G1 X-25.939 Y-7.134 Z3.522 F600
G1 X-26.739 Y-7.134 Z4.238 F600
G1 X-27.139 Y-7.134 Z4.544 F600
G1 X-27.539 Y-7.134 Z4.807 F600
G1 X-27.939 Y-7.134 Z4.998 F600
G1 X-28.339 Y-7.134 Z5.141 F600
G1 X-28.739 Y-7.134 Z5.216 F600
G1 X-29.139 Y-7.134 Z5.245 F600
G1 X-29.539 Y-7.134 Z5.209 F600
G1 X-29.939 Y-7.134 Z5.132 F600
G1 X-30.339 Y-7.134 Z4.991 F600
G1 X-31.139 Y-7.134 Z4.626 F600
G1 X-31.539 Y-7.134 Z4.600 F600
G1 X-32.339 Y-7.134 Z4.707 F600
G1 X-32.739 Y-7.134 Z4.719 F600
G1 X-33.139 Y-7.134 Z4.686 F600
G1 X-33.539 Y-7.134 Z4.605 F600
G1 X-33.939 Y-7.134 Z4.471 F600
G1 X-34.339 Y-7.134 Z4.275 F600
G1 X-34.739 Y-7.134 Z4.026 F600
G1 X-35.139 Y-7.134 Z3.721 F600
G1 X-35.539 Y-7.134 Z3.320 F600
G1 X-35.939 Y-7.134 Z1.000 F600
G1 X-36.339 Y-7.134 Z1.000 F600
G1 X-36.739 Y-6.684 Z1.000 F600
G1 X-36.339 Y-6.684 Z1.000 F600
G1 X-35.939 Y-6.684 Z3.071 F600
G1 X-35.539 Y-6.684 Z3.644 F600
G1 X-35.139 Y-6.684 Z4.030 F600
G1 X-34.739 Y-6.684 Z4.357 F600
G1 X-34.339 Y-6.684 Z4.606 F600
G1 X-33.939 Y-6.684 Z4.809 F600
G1 X-33.539 Y-6.684 Z4.962 F600
G1 X-33.139 Y-6.684 Z5.065 F600
G1 X-32.739 Y-6.684 Z5.115 F600
G1 X-32.339 Y-6.684 Z5.117 F600
G1 X-31.939 Y-6.684 Z5.089 F600
G1 X-31.539 Y-6.684 Z5.037 F600
G1 X-31.139 Y-6.684 Z5.023 F600
G1 X-30.339 Y-6.684 Z5.342 F600
G1 X-29.939 Y-6.684 Z5.468 F600
G1 X-29.539 Y-6.684 Z5.540 F600
G1 X-29.139 Y-6.684 Z5.559 F600
G1 X-28.739 Y-6.684 Z5.528 F600
G1 X-28.339 Y-6.684 Z5.441 F600
G1 X-27.939 Y-6.684 Z5.308 F600
G1 X-27.539 Y-6.684 Z5.111 F600
G1 X-27.139 Y-6.684 Z4.854 F600
G1 X-26.739 Y-6.684 Z4.562 F600
G1 X-26.339 Y-6.684 Z4.235 F600
G1 X-25.939 Y-6.684 Z4.020 F600
G1 X-24.739 Y-6.684 Z3.695 F600
G1 X-24.339 Y-6.684 Z3.535 F600
G1 X-23.939 Y-6.684 Z3.315 F600
G1 X-23.539 Y-6.684 Z2.932 F600
G1 X-23.139 Y-6.684 Z1.000 F600
G1 X-22.739 Y-6.234 Z1.000 F600
G1 X-23.139 Y-6.234 Z3.198 F600
G1 X-23.539 Y-6.234 Z3.566 F600
G1 X-23.939 Y-6.234 Z3.815 F600
G1 X-24.339 Y-6.234 Z4.041 F600
G1 X-25.139 Y-6.234 Z4.329 F600
G1 X-25.939 Y-6.234 Z4.504 F600
G1 X-26.339 Y-6.234 Z4.608 F600
G1 X-26.739 Y-6.234 Z4.856 F600
G1 X-27.139 Y-6.234 Z5.139 F600
G1 X-27.539 Y-6.234 Z5.389 F600
G1 X-27.939 Y-6.234 Z5.581 F600
G1 X-28.339 Y-6.234 Z5.718 F600
G1 X-28.739 Y-6.234 Z5.810 F600
G1 X-29.139 Y-6.234 Z5.849 F600
G1 X-29.539 Y-6.234 Z5.841 F600
G1 X-29.939 Y-6.234 Z5.773 F600
G1 X-30.339 Y-6.234 Z5.656 F600
G1 X-31.139 Y-6.234 Z5.389 F600
G1 X-31.939 Y-6.234 Z5.470 F600
G1 X-32.339 Y-6.234 Z5.481 F600
G1 X-32.739 Y-6.234 Z5.463 F600
G1 X-33.139 Y-6.234 Z5.393 F600
G1 X-33.539 Y-6.234 Z5.277 F600
G1 X-33.939 Y-6.234 Z5.105 F600
G1 X-34.339 Y-6.234 Z4.898 F600
G1 X-34.739 Y-6.234 Z4.622 F600
G1 X-35.139 Y-6.234 Z4.280 F600
G1 X-35.539 Y-6.234 Z3.893 F600
G1 X-35.939 Y-6.234 Z3.414 F600
G1 X-36.339 Y-6.234 Z1.000 F600
G1 X-37.139 Y-6.234 Z1.000 F600
G1 X-37.539 Y-5.784 Z1.000 F600
G1 X-36.739 Y-5.784 Z1.000 F600
G1 X-36.339 Y-5.784 Z2.969 F600
G1 X-35.939 Y-5.784 Z3.639 F600
G1 X-35.539 Y-5.784 Z4.114 F600
G1 X-35.139 Y-5.784 Z4.509 F600
G1 X-34.739 Y-5.784 Z4.851 F600
G1 X-34.339 Y-5.784 Z5.129 F600
G1 X-33.939 Y-5.784 Z5.366 F600
G1 X-33.539 Y-5.784 Z5.543 F600
G1 X-33.139 Y-5.784 Z5.678 F600
G1 X-32.739 Y-5.784 Z5.760 F600
G1 X-32.339 Y-5.784 Z5.805 F600
G1 X-31.939 Y-5.784 Z5.801 F600
G1 X-31.139 Y-5.784 Z5.727 F600
G1 X-30.739 Y-5.784 Z5.813 F600
G1 X-29.939 Y-5.784 Z6.049 F600
G1 X-29.539 Y-5.784 Z6.106 F600
G1 X-29.139 Y-5.784 Z6.111 F600
G1 X-28.739 Y-5.784 Z6.061 F600
G1 X-28.339 Y-5.784 Z5.970 F600
G1 X-27.939 Y-5.784 Z5.825 F600
G1 X-27.539 Y-5.784 Z5.635 F600
G1 X-26.739 Y-5.784 Z5.150 F600
G1 X-26.339 Y-5.784 Z5.025 F600
G1 X-25.539 Y-5.784 Z4.871 F600
G1 X-25.139 Y-5.784 Z4.758 F600
G1 X-24.739 Y-5.784 Z4.621 F600
G1 X-23.939 Y-5.784 Z4.216 F600
G1 X-23.539 Y-5.784 Z3.947 F600
G1 X-23.139 Y-5.784 Z3.635 F600
G1 X-22.739 Y-5.784 Z3.229 F600
G1 X-22.339 Y-5.784 Z1.000 F600
G1 X-21.939 Y-5.334 Z1.000 F600
G1 X-22.339 Y-5.334 Z2.872 F600
G1 X-22.739 Y-5.334 Z3.539 F600
G1 X-23.139 Y-5.334 Z3.930 F600
G1 X-23.539 Y-5.334 Z4.253 F600
G1 X-23.939 Y-5.334 Z4.533 F600
G1 X-24.339 Y-5.334 Z4.772 F600
G1 X-24.739 Y-5.334 Z4.963 F600
G1 X-25.139 Y-5.334 Z5.121 F600
G1 X-25.539 Y-5.334 Z5.247 F600
G1 X-25.939 Y-5.334 Z5.342 F600
G1 X-26.739 Y-5.334 Z5.477 F600
G1 X-27.139 Y-5.334 Z5.634 F600
G1 X-27.539 Y-5.334 Z5.857 F600
G1 X-27.939 Y-5.334 Z6.048 F600
G1 X-28.339 Y-5.334 Z6.191 F600
G1 X-28.739 Y-5.334 Z6.292 F600
G1 X-29.139 Y-5.334 Z6.344 F600
G1 X-29.539 Y-5.334 Z6.343 F600
G1 X-29.939 Y-5.334 Z6.293 F600
G1 X-30.339 Y-5.334 Z6.200 F600
G1 X-30.739 Y-5.334 Z6.081 F600
G1 X-31.139 Y-5.334 Z6.036 F600
G1 X-31.539 Y-5.334 Z6.077 F600
G1 X-31.939 Y-5.334 Z6.095 F600
G1 X-32.339 Y-5.334 Z6.082 F600
G1 X-32.739 Y-5.334 Z6.021 F600
G1 X-33.139 Y-5.334 Z5.916 F600
G1 X-33.539 Y-5.334 Z5.774 F600
G1 X-33.939 Y-5.334 Z5.580 F600
G1 X-34.339 Y-5.334 Z5.339 F600
G1 X-34.739 Y-5.334 Z5.038 F600
G1 X-35.139 Y-5.334 Z4.700 F600
G1 X-35.539 Y-5.334 Z4.304 F600
G1 X-36.339 Y-5.334 Z3.409 F600
G1 X-36.739 Y-5.334 Z2.842 F600
G1 X-37.139 Y-5.334 Z1.000 F600
G1 X-37.939 Y-5.334 Z1.000 F600
G1 X-38.339 Y-4.884 Z1.000 F600
G1 X-37.939 Y-4.884 Z1.000 F600
G1 X-37.539 Y-4.884 Z2.656 F600
G1 X-37.139 Y-4.884 Z3.315 F600
G1 X-35.939 Y-4.884 Z4.139 F600
G1 X-35.539 Y-4.884 Z4.485 F600
G1 X-35.139 Y-4.884 Z4.860 F600
G1 X-34.739 Y-4.884 Z5.201 F600
G1 X-34.339 Y-4.884 Z5.503 F600
G1 X-33.939 Y-4.884 Z5.756 F600
G1 X-33.539 Y-4.884 Z5.968 F600
G1 X-33.139 Y-4.884 Z6.129 F600
G1 X-32.739 Y-4.884 Z6.242 F600
G1 X-32.339 Y-4.884 Z6.316 F600
G1 X-31.939 Y-4.884 Z6.355 F600
G1 X-31.539 Y-4.884 Z6.348 F600
G1 X-31.139 Y-4.884 Z6.317 F600
G1 X-30.739 Y-4.884 Z6.327 F600
G1 X-30.339 Y-4.884 Z6.434 F600
G1 X-29.939 Y-4.884 Z6.514 F600
G1 X-29.539 Y-4.884 Z6.556 F600
G1 X-29.139 Y-4.884 Z6.552 F600
G1 X-28.739 Y-4.884 Z6.499 F600
G1 X-28.339 Y-4.884 Z6.394 F600
G1 X-27.939 Y-4.884 Z6.242 F600
G1 X-27.139 Y-4.884 Z5.879 F600
G1 X-26.339 Y-4.884 Z5.751 F600
G1 X-25.939 Y-4.884 Z5.671 F600
G1 X-25.539 Y-4.884 Z5.563 F600
G1 X-25.139 Y-4.884 Z5.426 F600
G1 X-24.739 Y-4.884 Z5.250 F600
G1 X-24.339 Y-4.884 Z5.038 F600
G1 X-23.939 Y-4.884 Z4.788 F600
G1 X-23.539 Y-4.884 Z4.496 F600
G1 X-23.139 Y-4.884 Z4.146 F600
G1 X-22.739 Y-4.884 Z3.755 F600
G1 X-22.339 Y-4.884 Z3.278 F600
G1 X-21.939 Y-4.884 Z1.000 F600
G1 X-21.539 Y-4.434 Z1.000 F600
G1 X-21.939 Y-4.434 Z1.000 F600
G1 X-22.339 Y-4.434 Z3.409 F600
G1 X-22.739 Y-4.434 Z3.892 F600
G1 X-23.139 Y-4.434 Z4.320 F600
G1 X-23.539 Y-4.434 Z4.667 F600
G1 X-23.939 Y-4.434 Z4.983 F600
G1 X-24.339 Y-4.434 Z5.254 F600
G1 X-24.739 Y-4.434 Z5.477 F600
G1 X-25.139 Y-4.434 Z5.669 F600
G1 X-25.539 Y-4.434 Z5.827 F600
G1 X-25.939 Y-4.434 Z5.954 F600
G1 X-26.739 Y-4.434 Z6.109 F600
G1 X-27.139 Y-4.434 Z6.161 F600
G1 X-27.539 Y-4.434 Z6.247 F600
G1 X-27.939 Y-4.434 Z6.418 F600
G1 X-28.339 Y-4.434 Z6.568 F600
G1 X-28.739 Y-4.434 Z6.677 F600
G1 X-29.139 Y-4.434 Z6.736 F600
G1 X-29.539 Y-4.434 Z6.747 F600
G1 X-29.939 Y-4.434 Z6.710 F600
G1 X-30.339 Y-4.434 Z6.641 F600
G1 X-30.739 Y-4.434 Z6.549 F600
G1 X-31.539 Y-4.434 Z6.582 F600
G1 X-31.939 Y-4.434 Z6.574 F600
G1 X-32.339 Y-4.434 Z6.521 F600
G1 X-32.739 Y-4.434 Z6.430 F600
G1 X-33.139 Y-4.434 Z6.302 F600
G1 X-33.539 Y-4.434 Z6.129 F600
G1 X-33.939 Y-4.434 Z5.899 F600
G1 X-34.339 Y-4.434 Z5.646 F600
G1 X-35.139 Y-4.434 Z5.027 F600
G1 X-35.539 Y-4.434 Z4.763 F600
G1 X-36.339 Y-4.434 Z4.313 F600
G1 X-36.739 Y-4.434 Z4.069 F600
G1 X-37.139 Y-4.434 Z3.804 F600
G1 X-37.539 Y-4.434 Z3.491 F600
G1 X-37.939 Y-4.434 Z2.954 F600
G1 X-38.339 Y-4.434 Z1.000 F600
G1 X-38.739 Y-3.984 Z1.000 F600
G1 X-38.339 Y-3.984 Z3.019 F600
G1 X-37.939 Y-3.984 Z3.588 F600
G1 X-37.539 Y-3.984 Z3.911 F600
G1 X-37.139 Y-3.984 Z4.208 F600
G1 X-36.739 Y-3.984 Z4.480 F600
G1 X-36.339 Y-3.984 Z4.713 F600
G1 X-34.739 Y-3.984 Z5.503 F600
G1 X-33.939 Y-3.984 Z6.026 F600
G1 X-33.539 Y-3.984 Z6.255 F600
G1 X-33.139 Y-3.984 Z6.440 F600
G1 X-32.739 Y-3.984 Z6.592 F600
G1 X-32.339 Y-3.984 Z6.699 F600
G1 X-31.939 Y-3.984 Z6.756 F600
G1 X-31.539 Y-3.984 Z6.787 F600
G1 X-30.739 Y-3.984 Z6.755 F600
G1 X-29.939 Y-3.984 Z6.887 F600
G1 X-29.539 Y-3.984 Z6.917 F600
G1 X-29.139 Y-3.984 Z6.901 F600
G1 X-28.739 Y-3.984 Z6.838 F600
G1 X-28.339 Y-3.984 Z6.725 F600
G1 X-27.939 Y-3.984 Z6.577 F600
G1 X-27.539 Y-3.984 Z6.463 F600
G1 X-26.739 Y-3.984 Z6.362 F600
G1 X-26.339 Y-3.984 Z6.291 F600
G1 X-25.939 Y-3.984 Z6.175 F600
G1 X-25.539 Y-3.984 Z6.033 F600
G1 X-25.139 Y-3.984 Z5.859 F600
G1 X-24.739 Y-3.984 Z5.655 F600
G1 X-24.339 Y-3.984 Z5.406 F600
G1 X-23.939 Y-3.984 Z5.127 F600
G1 X-23.539 Y-3.984 Z4.791 F600
G1 X-23.139 Y-3.984 Z4.422 F600
G1 X-22.739 Y-3.984 Z3.973 F600
G1 X-22.339 Y-3.984 Z3.480 F600
G1 X-21.939 Y-3.984 Z1.000 F600
G1 X-21.539 Y-3.984 Z1.000 F600
G1 X-21.139 Y-3.534 Z1.000 F600
G1 X-21.939 Y-3.534 Z1.000 F600
G1 X-22.339 Y-3.534 Z3.511 F600
G1 X-22.739 Y-3.534 Z4.011 F600
G1 X-23.139 Y-3.534 Z4.465 F600
G1 X-23.539 Y-3.534 Z4.863 F600
G1 X-23.939 Y-3.534 Z5.214 F600
G1 X-24.339 Y-3.534 Z5.515 F600
G1 X-24.739 Y-3.534 Z5.773 F600
G1 X-25.139 Y-3.534 Z6.004 F600
G1 X-25.539 Y-3.534 Z6.194 F600
G1 X-25.939 Y-3.534 Z6.353 F600
G1 X-26.339 Y-3.534 Z6.478 F600
G1 X-26.739 Y-3.534 Z6.581 F600
G1 X-27.939 Y-3.534 Z6.736 F600
G1 X-28.739 Y-3.534 Z6.972 F600
G1 X-29.139 Y-3.534 Z7.040 F600
G1 X-29.539 Y-3.534 Z7.062 F600
G1 X-29.939 Y-3.534 Z7.044 F600
G1 X-30.739 Y-3.534 Z6.943 F600
G1 X-31.139 Y-3.534 Z6.962 F600
G1 X-31.539 Y-3.534 Z6.959 F600
G1 X-31.939 Y-3.534 Z6.913 F600
G1 X-32.339 Y-3.534 Z6.837 F600
G1 X-32.739 Y-3.534 Z6.718 F600
G1 X-33.139 Y-3.534 Z6.554 F600
G1 X-33.539 Y-3.534 Z6.356 F600
G1 X-34.339 Y-3.534 Z5.925 F600
G1 X-35.139 Y-3.534 Z5.619 F600
G1 X-35.939 Y-3.534 Z5.256 F600
G1 X-36.339 Y-3.534 Z5.043 F600
G1 X-36.739 Y-3.534 Z4.803 F600
G1 X-37.139 Y-3.534 Z4.529 F600
G1 X-37.539 Y-3.534 Z4.231 F600
G1 X-37.939 Y-3.534 Z3.879 F600
G1 X-38.339 Y-3.534 Z3.505 F600
G1 X-38.739 Y-3.534 Z1.000 F600
G1 X-39.139 Y-3.084 Z1.000 F600
G1 X-38.739 Y-3.084 Z3.233 F600
G1 X-38.339 Y-3.084 Z3.731 F600
G1 X-37.539 Y-3.084 Z4.469 F600
G1 X-37.139 Y-3.084 Z4.771 F600
G1 X-36.739 Y-3.084 Z5.047 F600
G1 X-36.339 Y-3.084 Z5.296 F600
G1 X-35.939 Y-3.084 Z5.516 F600
G1 X-35.139 Y-3.084 Z5.888 F600
G1 X-34.339 Y-3.084 Z6.174 F600
G1 X-33.939 Y-3.084 Z6.298 F600
G1 X-33.539 Y-3.084 Z6.457 F600
G1 X-32.739 Y-3.084 Z6.813 F600
G1 X-32.339 Y-3.084 Z6.950 F600
G1 X-31.939 Y-3.084 Z7.045 F600
G1 X-31.539 Y-3.084 Z7.097 F600
G1 X-31.139 Y-3.084 Z7.116 F600
G1 X-30.739 Y-3.084 Z7.106 F600
G1 X-30.339 Y-3.084 Z7.126 F600
G1 X-29.939 Y-3.084 Z7.179 F600
G1 X-29.539 Y-3.084 Z7.191 F600
G1 X-29.139 Y-3.084 Z7.161 F600
G1 X-28.739 Y-3.084 Z7.089 F600
G1 X-28.339 Y-3.084 Z6.978 F600
G1 X-27.139 Y-3.084 Z6.830 F600
G1 X-26.739 Y-3.084 Z6.738 F600
G1 X-26.339 Y-3.084 Z6.625 F600
G1 X-25.939 Y-3.084 Z6.482 F600
G1 X-25.539 Y-3.084 Z6.308 F600
G1 X-25.139 Y-3.084 Z6.095 F600
G1 X-24.739 Y-3.084 Z5.854 F600
G1 X-24.339 Y-3.084 Z5.573 F600
G1 X-23.939 Y-3.084 Z5.248 F600
G1 X-23.539 Y-3.084 Z4.891 F600
G1 X-23.139 Y-3.084 Z4.484 F600
G1 X-22.739 Y-3.084 Z4.020 F600
G1 X-22.339 Y-3.084 Z3.524 F600
G1 X-21.939 Y-3.084 Z1.000 F600
G1 X-21.139 Y-3.084 Z1.000 F600
G1 X-20.739 Y-2.634 Z1.000 F600
G1 X-21.539 Y-2.634 Z1.000 F600
G1 X-21.939 Y-2.634 Z3.200 F600
G1 X-22.339 Y-2.634 Z3.673 F600
G1 X-23.139 Y-2.634 Z4.509 F600
G1 X-23.539 Y-2.634 Z4.905 F600
G1 X-23.939 Y-2.634 Z5.262 F600
G1 X-24.339 Y-2.634 Z5.592 F600
G1 X-24.739 Y-2.634 Z5.890 F600
G1 X-25.139 Y-2.634 Z6.145 F600
G1 X-25.539 Y-2.634 Z6.372 F600
G1 X-25.939 Y-2.634 Z6.562 F600
G1 X-26.339 Y-2.634 Z6.730 F600
G1 X-26.739 Y-2.634 Z6.858 F600
G1 X-27.139 Y-2.634 Z6.961 F600
G1 X-27.539 Y-2.634 Z7.037 F600
G1 X-27.939 Y-2.634 Z7.089 F600
G1 X-28.339 Y-2.634 Z7.117 F600
G1 X-29.139 Y-2.634 Z7.263 F600
G1 X-29.539 Y-2.634 Z7.303 F600
G1 X-29.939 Y-2.634 Z7.295 F600
G1 X-30.339 Y-2.634 Z7.247 F600
G1 X-31.139 Y-2.634 Z7.245 F600
G1 X-31.539 Y-2.634 Z7.210 F600
G1 X-31.939 Y-2.634 Z7.142 F600
G1 X-32.339 Y-2.634 Z7.032 F600
G1 X-33.139 Y-2.634 Z6.730 F600
G1 X-34.339 Y-2.634 Z6.393 F600
G1 X-34.739 Y-2.634 Z6.252 F600
G1 X-35.539 Y-2.634 Z5.919 F600
G1 X-35.939 Y-2.634 Z5.710 F600
G1 X-36.339 Y-2.634 Z5.479 F600
G1 X-37.139 Y-2.634 Z4.937 F600
G1 X-37.539 Y-2.634 Z4.612 F600
G1 X-37.939 Y-2.634 Z4.263 F600
G1 X-38.339 Y-2.634 Z3.872 F600
G1 X-38.739 Y-2.634 Z3.403 F600
G1 X-39.139 Y-2.634 Z1.000 F600
G1 X-39.139 Y-2.184 Z1.000 F600
G1 X-38.739 Y-2.184 Z3.455 F600
G1 X-38.339 Y-2.184 Z3.914 F600
G1 X-37.939 Y-2.184 Z4.336 F600
G1 X-37.539 Y-2.184 Z4.698 F600
G1 X-37.139 Y-2.184 Z5.026 F600
G1 X-36.739 Y-2.184 Z5.333 F600
G1 X-36.339 Y-2.184 Z5.596 F600
G1 X-35.939 Y-2.184 Z5.835 F600
G1 X-35.139 Y-2.184 Z6.244 F600
G1 X-34.339 Y-2.184 Z6.564 F600
G1 X-33.939 Y-2.184 Z6.691 F600
G1 X-32.739 Y-2.184 Z6.979 F600
G1 X-31.939 Y-2.184 Z7.209 F600
G1 X-31.539 Y-2.184 Z7.300 F600
G1 X-31.139 Y-2.184 Z7.348 F600
G1 X-30.339 Y-2.184 Z7.352 F600
G1 X-29.939 Y-2.184 Z7.392 F600
G1 X-29.539 Y-2.184 Z7.393 F600
G1 X-29.139 Y-2.184 Z7.349 F600
G1 X-28.739 Y-2.184 Z7.277 F600
G1 X-27.939 Y-2.184 Z7.210 F600
G1 X-27.539 Y-2.184 Z7.149 F600
G1 X-27.139 Y-2.184 Z7.054 F600
G1 X-26.739 Y-2.184 Z6.937 F600
G1 X-25.939 Y-2.184 Z6.610 F600
G1 X-25.539 Y-2.184 Z6.399 F600
G1 X-25.139 Y-2.184 Z6.161 F600
G1 X-24.739 Y-2.184 Z5.899 F600
G1 X-23.539 Y-2.184 Z5.013 F600
G1 X-23.139 Y-2.184 Z4.704 F600
G1 X-22.739 Y-2.184 Z4.371 F600
G1 X-22.339 Y-2.184 Z4.014 F600
G1 X-21.939 Y-2.184 Z3.618 F600
G1 X-21.539 Y-2.184 Z3.079 F600
G1 X-21.139 Y-2.184 Z1.000 F600
G1 X-20.739 Y-2.184 Z1.000 F600
G1 X-20.739 Y-1.734 Z1.000 F600
G1 X-21.139 Y-1.734 Z2.968 F600
G1 X-21.539 Y-1.734 Z3.548 F600
G1 X-21.939 Y-1.734 Z3.956 F600
G1 X-22.339 Y-1.734 Z4.328 F600
G1 X-22.739 Y-1.734 Z4.668 F600
G1 X-23.139 Y-1.734 Z4.975 F600
G1 X-23.939 Y-1.734 Z5.518 F600
G1 X-24.339 Y-1.734 Z5.760 F600
G1 X-25.939 Y-1.734 Z6.620 F600
G1 X-26.739 Y-1.734 Z6.971 F600
G1 X-27.139 Y-1.734 Z7.106 F600
G1 X-27.539 Y-1.734 Z7.218 F600
G1 X-27.939 Y-1.734 Z7.299 F600
G1 X-28.339 Y-1.734 Z7.352 F600
G1 X-29.139 Y-1.734 Z7.416 F600
G1 X-29.539 Y-1.734 Z7.465 F600
G1 X-29.939 Y-1.734 Z7.470 F600
G1 X-30.339 Y-1.734 Z7.440 F600
G1 X-30.739 Y-1.734 Z7.444 F600
G1 X-31.139 Y-1.734 Z7.418 F600
G1 X-31.539 Y-1.734 Z7.357 F600
G1 X-31.939 Y-1.734 Z7.260 F600
G1 X-33.139 Y-1.734 Z7.031 F600
G1 X-33.939 Y-1.734 Z6.812 F600
G1 X-34.739 Y-1.734 Z6.514 F600
G1 X-35.139 Y-1.734 Z6.335 F600
G1 X-35.539 Y-1.734 Z6.132 F600
G1 X-36.339 Y-1.734 Z5.653 F600
G1 X-36.739 Y-1.734 Z5.367 F600
G1 X-37.139 Y-1.734 Z5.055 F600
G1 X-37.539 Y-1.734 Z4.719 F600
G1 X-37.939 Y-1.734 Z4.327 F600
G1 X-38.339 Y-1.734 Z3.901 F600
G1 X-38.739 Y-1.734 Z3.424 F600
G1 X-39.139 Y-1.734 Z1.000 F600
G1 X-39.539 Y-1.284 Z1.000 F600
G1 X-39.139 Y-1.284 Z1.000 F600
G1 X-38.739 Y-1.284 Z3.313 F600
G1 X-38.339 Y-1.284 Z3.806 F600
G1 X-37.939 Y-1.284 Z4.258 F600
G1 X-37.539 Y-1.284 Z4.659 F600
G1 X-37.139 Y-1.284 Z5.015 F600
G1 X-36.739 Y-1.284 Z5.341 F600
G1 X-36.339 Y-1.284 Z5.642 F600
G1 X-35.939 Y-1.284 Z5.912 F600
G1 X-35.139 Y-1.284 Z6.362 F600
G1 X-34.339 Y-1.284 Z6.723 F600
G1 X-33.939 Y-1.284 Z6.879 F600
G1 X-33.539 Y-1.284 Z7.009 F600
G1 X-32.739 Y-1.284 Z7.211 F600
G1 X-32.339 Y-1.284 Z7.289 F600
G1 X-31.139 Y-1.284 Z7.466 F600
G1 X-30.739 Y-1.284 Z7.509 F600
G1 X-29.939 Y-1.284 Z7.528 F600
G1 X-29.539 Y-1.284 Z7.518 F600
G1 X-28.739 Y-1.284 Z7.462 F600
G1 X-28.339 Y-1.284 Z7.415 F600
G1 X-27.939 Y-1.284 Z7.344 F600
G1 X-27.139 Y-1.284 Z7.122 F600
G1 X-25.539 Y-1.284 Z6.521 F600
G1 X-24.739 Y-1.284 Z6.162 F600
G1 X-24.339 Y-1.284 Z5.956 F600
G1 X-23.939 Y-1.284 Z5.727 F600
G1 X-23.139 Y-1.284 Z5.208 F600
G1 X-22.739 Y-1.284 Z4.916 F600
G1 X-22.339 Y-1.284 Z4.592 F600
G1 X-21.939 Y-1.284 Z4.232 F600
G1 X-21.539 Y-1.284 Z3.845 F600
G1 X-21.139 Y-1.284 Z3.411 F600
G1 X-20.739 Y-1.284 Z1.000 F600
G1 X-20.739 Y-0.834 Z2.895 F600
G1 X-21.139 Y-0.834 Z3.606 F600
G1 X-21.539 Y-0.834 Z4.031 F600
G1 X-21.939 Y-0.834 Z4.409 F600
G1 X-22.339 Y-0.834 Z4.762 F600
G1 X-22.739 Y-0.834 Z5.081 F600
G1 X-23.139 Y-0.834 Z5.371 F600
G1 X-23.539 Y-0.834 Z5.636 F600
G1 X-24.339 Y-0.834 Z6.104 F600
G1 X-24.739 Y-0.834 Z6.305 F600
G1 X-25.539 Y-0.834 Z6.653 F600
G1 X-26.339 Y-0.834 Z6.941 F600
G1 X-27.139 Y-0.834 Z7.166 F600
G1 X-28.339 Y-0.834 Z7.438 F600
G1 X-28.739 Y-0.834 Z7.499 F600
G1 X-29.139 Y-0.834 Z7.539 F600
G1 X-29.939 Y-0.834 Z7.568 F600
G1 X-30.739 Y-0.834 Z7.542 F600
G1 X-31.939 Y-0.834 Z7.413 F600
G1 X-32.339 Y-0.834 Z7.346 F600
G1 X-33.139 Y-0.834 Z7.151 F600
G1 X-33.939 Y-0.834 Z6.886 F600
G1 X-34.339 Y-0.834 Z6.724 F600
G1 X-34.739 Y-0.834 Z6.542 F600
G1 X-35.139 Y-0.834 Z6.337 F600
G1 X-35.939 Y-0.834 Z5.853 F600
G1 X-36.339 Y-0.834 Z5.577 F600
G1 X-36.739 Y-0.834 Z5.261 F600
G1 X-37.139 Y-0.834 Z4.923 F600
G1 X-37.539 Y-0.834 Z4.546 F600
G1 X-37.939 Y-0.834 Z4.119 F600
G1 X-38.339 Y-0.834 Z3.644 F600
G1 X-38.739 Y-0.834 Z3.018 F600
G1 X-39.139 Y-0.834 Z1.000 F600
G1 X-39.539 Y-0.834 Z1.000 F600
G1 X-39.539 Y-0.384 Z1.000 F600
G1 X-38.739 Y-0.384 Z1.000 F600
G1 X-38.339 Y-0.384 Z3.450 F600
G1 X-37.939 Y-0.384 Z3.941 F600
G1 X-37.539 Y-0.384 Z4.390 F600
G1 X-37.139 Y-0.384 Z4.788 F600
G1 X-36.739 Y-0.384 Z5.137 F600
G1 X-36.339 Y-0.384 Z5.465 F600
G1 X-35.939 Y-0.384 Z5.759 F600
G1 X-35.539 Y-0.384 Z6.021 F600
G1 X-34.739 Y-0.384 Z6.479 F600
G1 X-34.339 Y-0.384 Z6.673 F600
G1 X-33.539 Y-0.384 Z7.001 F600
G1 X-33.139 Y-0.384 Z7.135 F600
G1 X-32.339 Y-0.384 Z7.345 F600
G1 X-31.539 Y-0.384 Z7.491 F600
G1 X-30.739 Y-0.384 Z7.570 F600
G1 X-29.939 Y-0.384 Z7.589 F600
G1 X-29.539 Y-0.384 Z7.583 F600
G1 X-28.339 Y-0.384 Z7.460 F600
G1 X-27.539 Y-0.384 Z7.327 F600
G1 X-26.739 Y-0.384 Z7.133 F600
G1 X-25.939 Y-0.384 Z6.885 F600
G1 X-25.139 Y-0.384 Z6.568 F600
G1 X-24.739 Y-0.384 Z6.388 F600
G1 X-24.339 Y-0.384 Z6.189 F600
G1 X-23.939 Y-0.384 Z5.967 F600
G1 X-23.139 Y-0.384 Z5.466 F600
G1 X-22.739 Y-0.384 Z5.179 F600
G1 X-22.339 Y-0.384 Z4.859 F600
G1 X-21.939 Y-0.384 Z4.518 F600
G1 X-21.539 Y-0.384 Z4.143 F600
G1 X-21.139 Y-0.384 Z3.724 F600
G1 X-20.739 Y-0.384 Z3.065 F600
G1 X-20.339 Y-0.384 Z1.000 F600
G1 X-20.339 Y0.066 Z1.000 F600
G1 X-20.739 Y0.066 Z3.114 F600
G1 X-21.139 Y0.066 Z3.765 F600
G1 X-21.539 Y0.066 Z4.182 F600
G1 X-21.939 Y0.066 Z4.555 F600
G1 X-22.739 Y0.066 Z5.212 F600
G1 X-23.139 Y0.066 Z5.497 F600
G1 X-23.939 Y0.066 Z5.995 F600
G1 X-24.339 Y0.066 Z6.216 F600
G1 X-24.739 Y0.066 Z6.415 F600
G1 X-25.539 Y0.066 Z6.759 F600
G1 X-26.339 Y0.066 Z7.041 F600
G1 X-27.139 Y0.066 Z7.260 F600
G1 X-27.939 Y0.066 Z7.424 F600
G1 X-28.739 Y0.066 Z7.534 F600
G1 X-29.539 Y0.066 Z7.589 F600
G1 X-30.339 Y0.066 Z7.593 F600
G1 X-30.739 Y0.066 Z7.573 F600
G1 X-31.539 Y0.066 Z7.480 F600
G1 X-32.339 Y0.066 Z7.325 F600
G1 X-33.139 Y0.066 Z7.103 F600
G1 X-33.939 Y0.066 Z6.802 F600
G1 X-34.339 Y0.066 Z6.628 F600
G1 X-34.739 Y0.066 Z6.427 F600
G1 X-35.539 Y0.066 Z5.960 F600
G1 X-35.939 Y0.066 Z5.691 F600
G1 X-36.339 Y0.066 Z5.388 F600
G1 X-36.739 Y0.066 Z5.064 F600
G1 X-37.139 Y0.066 Z4.703 F600
G1 X-37.539 Y0.066 Z4.298 F600
G1 X-37.939 Y0.066 Z3.846 F600
G1 X-38.339 Y0.066 Z3.354 F600
G1 X-38.739 Y0.066 Z1.000 F600
G1 X-39.539 Y0.066 Z1.000 F600
G1 X-39.539 Y0.516 Z1.000 F600
G1 X-39.139 Y0.516 Z1.000 F600
G1 X-38.739 Y0.516 Z2.611 F600
G1 X-38.339 Y0.516 Z3.509 F600
G1 X-37.939 Y0.516 Z3.995 F600
G1 X-37.539 Y0.516 Z4.437 F600
G1 X-37.139 Y0.516 Z4.830 F600
G1 X-36.739 Y0.516 Z5.176 F600
G1 X-36.339 Y0.516 Z5.500 F600
G1 X-35.939 Y0.516 Z5.791 F600
G1 X-35.139 Y0.516 Z6.284 F600
G1 X-34.739 Y0.516 Z6.500 F600
G1 X-34.339 Y0.516 Z6.692 F600
G1 X-33.539 Y0.516 Z7.015 F600
G1 X-33.139 Y0.516 Z7.144 F600
G1 X-32.339 Y0.516 Z7.349 F600
G1 X-31.939 Y0.516 Z7.430 F600
G1 X-31.139 Y0.516 Z7.534 F600
G1 X-30.339 Y0.516 Z7.582 F600
G1 X-29.539 Y0.516 Z7.575 F600
G1 X-29.139 Y0.516 Z7.554 F600
G1 X-27.939 Y0.516 Z7.387 F600
G1 X-27.139 Y0.516 Z7.224 F600
G1 X-26.339 Y0.516 Z7.001 F600
G1 X-25.539 Y0.516 Z6.720 F600
G1 X-24.739 Y0.516 Z6.375 F600
G1 X-24.339 Y0.516 Z6.176 F600
G1 X-23.939 Y0.516 Z5.954 F600
G1 X-23.139 Y0.516 Z5.451 F600
G1 X-22.739 Y0.516 Z5.162 F600
G1 X-22.339 Y0.516 Z4.841 F600
G1 X-21.939 Y0.516 Z4.498 F600
G1 X-21.539 Y0.516 Z4.123 F600
G1 X-21.139 Y0.516 Z3.701 F600
G1 X-20.739 Y0.516 Z3.030 F600
G1 X-20.339 Y0.516 Z1.000 F600
G1 X-20.739 Y0.966 Z2.825 F600
G1 X-21.139 Y0.966 Z3.562 F600
G1 X-21.539 Y0.966 Z3.985 F600
G1 X-21.939 Y0.966 Z4.362 F600
G1 X-22.339 Y0.966 Z4.716 F600
G1 X-22.739 Y0.966 Z5.038 F600
G1 X-23.139 Y0.966 Z5.329 F600
G1 X-23.939 Y0.966 Z5.837 F600
G1 X-24.339 Y0.966 Z6.062 F600
G1 X-25.139 Y0.966 Z6.450 F600
G1 X-25.939 Y0.966 Z6.771 F600
G1 X-26.739 Y0.966 Z7.029 F600
G1 X-27.939 Y0.966 Z7.350 F600
G1 X-28.339 Y0.966 Z7.435 F600
G1 X-28.739 Y0.966 Z7.494 F600
G1 X-29.939 Y0.966 Z7.557 F600
G1 X-30.739 Y0.966 Z7.536 F600
G1 X-31.939 Y0.966 Z7.396 F600
G1 X-32.339 Y0.966 Z7.335 F600
G1 X-33.139 Y0.966 Z7.148 F600
G1 X-33.939 Y0.966 Z6.886 F600
G1 X-34.739 Y0.966 Z6.553 F600
G1 X-35.139 Y0.966 Z6.349 F600
G1 X-35.939 Y0.966 Z5.875 F600
G1 X-36.339 Y0.966 Z5.599 F600
G1 X-36.739 Y0.966 Z5.293 F600
G1 X-37.139 Y0.966 Z4.959 F600
G1 X-37.539 Y0.966 Z4.587 F600
G1 X-37.939 Y0.966 Z4.163 F600
G1 X-38.339 Y0.966 Z3.693 F600
G1 X-38.739 Y0.966 Z3.077 F600
G1 X-39.139 Y0.966 Z1.000 F600
G1 X-39.539 Y0.966 Z1.000 F600
G1 X-39.539 Y1.416 Z1.000 F600
G1 X-39.139 Y1.416 Z1.000 F600
G1 X-38.739 Y1.416 Z3.351 F600
G1 X-38.339 Y1.416 Z3.834 F600
G1 X-37.939 Y1.416 Z4.284 F600
G1 X-37.539 Y1.416 Z4.682 F600
G1 X-37.139 Y1.416 Z5.032 F600
G1 X-36.339 Y1.416 Z5.657 F600
G1 X-35.939 Y1.416 Z5.912 F600
G1 X-35.139 Y1.416 Z6.360 F600
G1 X-34.339 Y1.416 Z6.718 F600
G1 X-33.939 Y1.416 Z6.866 F600
G1 X-33.539 Y1.416 Z6.990 F600
G1 X-32.739 Y1.416 Z7.189 F600
G1 X-31.139 Y1.416 Z7.455 F600
G1 X-30.739 Y1.416 Z7.494 F600
G1 X-30.339 Y1.416 Z7.493 F600
G1 X-29.939 Y1.416 Z7.512 F600
G1 X-29.539 Y1.416 Z7.504 F600
G1 X-29.139 Y1.416 Z7.460 F600
G1 X-28.739 Y1.416 Z7.441 F600
G1 X-28.339 Y1.416 Z7.401 F600
G1 X-27.939 Y1.416 Z7.337 F600
G1 X-27.139 Y1.416 Z7.120 F600
G1 X-26.739 Y1.416 Z6.976 F600
G1 X-25.139 Y1.416 Z6.299 F600
G1 X-24.339 Y1.416 Z5.903 F600
G1 X-23.939 Y1.416 Z5.675 F600
G1 X-23.139 Y1.416 Z5.148 F600
G1 X-22.739 Y1.416 Z4.851 F600
G1 X-22.339 Y1.416 Z4.519 F600
G1 X-21.939 Y1.416 Z4.154 F600
G1 X-21.539 Y1.416 Z3.766 F600
G1 X-21.139 Y1.416 Z3.295 F600
G1 X-20.739 Y1.416 Z1.000 F600
G1 X-20.739 Y1.866 Z1.000 F600
G1 X-21.139 Y1.866 Z2.799 F600
G1 X-21.539 Y1.866 Z3.444 F600
G1 X-21.939 Y1.866 Z3.866 F600
G1 X-22.339 Y1.866 Z4.247 F600
G1 X-22.739 Y1.866 Z4.586 F600
G1 X-23.139 Y1.866 Z4.900 F600
G1 X-23.939 Y1.866 Z5.452 F600
G1 X-25.539 Y1.866 Z6.403 F600
G1 X-25.939 Y1.866 Z6.619 F600
G1 X-26.339 Y1.866 Z6.802 F600
G1 X-26.739 Y1.866 Z6.964 F600
G1 X-27.139 Y1.866 Z7.095 F600
G1 X-27.539 Y1.866 Z7.202 F600
G1 X-27.939 Y1.866 Z7.275 F600
G1 X-28.339 Y1.866 Z7.325 F600
G1 X-29.539 Y1.866 Z7.446 F600
G1 X-29.939 Y1.866 Z7.449 F600
G1 X-30.339 Y1.866 Z7.418 F600
G1 X-30.739 Y1.866 Z7.421 F600
G1 X-31.139 Y1.866 Z7.401 F600
G1 X-31.539 Y1.866 Z7.342 F600
G1 X-32.339 Y1.866 Z7.150 F600
G1 X-33.139 Y1.866 Z6.998 F600
G1 X-33.939 Y1.866 Z6.782 F600
G1 X-34.739 Y1.866 Z6.486 F600
G1 X-35.139 Y1.866 Z6.316 F600
G1 X-35.539 Y1.866 Z6.115 F600
G1 X-35.939 Y1.866 Z5.890 F600
G1 X-36.339 Y1.866 Z5.637 F600
G1 X-36.739 Y1.866 Z5.365 F600
G1 X-37.139 Y1.866 Z5.052 F600
G1 X-37.539 Y1.866 Z4.717 F600
G1 X-37.939 Y1.866 Z4.344 F600
G1 X-38.339 Y1.866 Z3.905 F600
G1 X-38.739 Y1.866 Z3.439 F600
G1 X-39.139 Y1.866 Z1.000 F600
G1 X-39.139 Y2.316 Z1.000 F600
G1 X-38.739 Y2.316 Z3.450 F600
G1 X-38.339 Y2.316 Z3.910 F600
G1 X-37.939 Y2.316 Z4.324 F600
G1 X-37.539 Y2.316 Z4.682 F600
G1 X-37.139 Y2.316 Z5.014 F600
G1 X-36.739 Y2.316 Z5.305 F600
G1 X-36.339 Y2.316 Z5.570 F600
G1 X-35.539 Y2.316 Z6.020 F600
G1 X-34.739 Y2.316 Z6.374 F600
G1 X-34.339 Y2.316 Z6.520 F600
G1 X-33.539 Y2.316 Z6.748 F600
G1 X-32.739 Y2.316 Z6.942 F600
G1 X-32.339 Y2.316 Z7.078 F600
G1 X-31.939 Y2.316 Z7.190 F600
G1 X-31.539 Y2.316 Z7.277 F600
G1 X-31.139 Y2.316 Z7.322 F600
G1 X-30.339 Y2.316 Z7.324 F600
G1 X-29.939 Y2.316 Z7.366 F600
G1 X-29.539 Y2.316 Z7.369 F600
G1 X-29.139 Y2.316 Z7.327 F600
G1 X-28.739 Y2.316 Z7.252 F600
G1 X-27.939 Y2.316 Z7.178 F600
G1 X-27.539 Y2.316 Z7.119 F600
G1 X-27.139 Y2.316 Z7.035 F600
G1 X-26.739 Y2.316 Z6.919 F600
G1 X-26.339 Y2.316 Z6.770 F600
G1 X-25.939 Y2.316 Z6.600 F600
G1 X-25.539 Y2.316 Z6.395 F600
G1 X-25.139 Y2.316 Z6.159 F600
G1 X-24.739 Y2.316 Z5.895 F600
G1 X-24.339 Y2.316 Z5.601 F600
G1 X-23.139 Y2.316 Z4.628 F600
G1 X-22.339 Y2.316 Z3.913 F600
G1 X-21.939 Y2.316 Z3.505 F600
G1 X-21.539 Y2.316 Z2.883 F600
G1 X-21.139 Y2.316 Z1.000 F600
G1 X-20.739 Y2.316 Z1.000 F600
G1 X-20.739 Y2.766 Z1.000 F600
G1 X-21.539 Y2.766 Z1.000 F600
G1 X-21.939 Y2.766 Z3.021 F600
G1 X-22.339 Y2.766 Z3.600 F600
G1 X-23.139 Y2.766 Z4.496 F600
G1 X-23.539 Y2.766 Z4.899 F600
G1 X-23.939 Y2.766 Z5.259 F600
G1 X-24.339 Y2.766 Z5.589 F600
G1 X-24.739 Y2.766 Z5.882 F600
G1 X-25.139 Y2.766 Z6.135 F600
G1 X-25.539 Y2.766 Z6.358 F600
G1 X-25.939 Y2.766 Z6.543 F600
G1 X-26.339 Y2.766 Z6.706 F600
G1 X-26.739 Y2.766 Z6.828 F600
G1 X-27.139 Y2.766 Z6.927 F600
G1 X-27.939 Y2.766 Z7.043 F600
G1 X-28.339 Y2.766 Z7.074 F600
G1 X-29.139 Y2.766 Z7.235 F600
G1 X-29.539 Y2.766 Z7.272 F600
G1 X-29.939 Y2.766 Z7.264 F600
G1 X-30.339 Y2.766 Z7.216 F600
G1 X-31.139 Y2.766 Z7.210 F600
G1 X-31.539 Y2.766 Z7.180 F600
G1 X-31.939 Y2.766 Z7.118 F600
G1 X-32.339 Y2.766 Z7.010 F600
G1 X-33.139 Y2.766 Z6.700 F600
G1 X-33.539 Y2.766 Z6.563 F600
G1 X-34.339 Y2.766 Z6.332 F600
G1 X-34.739 Y2.766 Z6.193 F600
G1 X-35.539 Y2.766 Z5.861 F600
G1 X-35.939 Y2.766 Z5.662 F600
G1 X-36.739 Y2.766 Z5.183 F600
G1 X-37.139 Y2.766 Z4.893 F600
G1 X-37.539 Y2.766 Z4.579 F600
G1 X-37.939 Y2.766 Z4.225 F600
G1 X-38.339 Y2.766 Z3.835 F600
G1 X-38.739 Y2.766 Z3.382 F600
G1 X-39.139 Y2.766 Z1.000 F600
G1 X-38.739 Y3.216 Z3.179 F600
G1 X-38.339 Y3.216 Z3.667 F600
G1 X-37.939 Y3.216 Z4.058 F600
G1 X-37.539 Y3.216 Z4.404 F600
G1 X-37.139 Y3.216 Z4.709 F600
G1 X-36.739 Y3.216 Z4.979 F600
G1 X-36.339 Y3.216 Z5.223 F600
G1 X-35.939 Y3.216 Z5.443 F600
G1 X-35.139 Y3.216 Z5.814 F600
G1 X-33.939 Y3.216 Z6.238 F600
G1 X-33.139 Y3.216 Z6.619 F600
G1 X-32.739 Y3.216 Z6.786 F600
G1 X-32.339 Y3.216 Z6.920 F600
G1 X-31.939 Y3.216 Z7.013 F600
G1 X-31.539 Y3.216 Z7.061 F600
G1 X-31.139 Y3.216 Z7.073 F600
G1 X-30.739 Y3.216 Z7.062 F600
G1 X-30.339 Y3.216 Z7.088 F600
G1 X-29.939 Y3.216 Z7.143 F600
G1 X-29.539 Y3.216 Z7.156 F600
G1 X-29.139 Y3.216 Z7.129 F600
G1 X-28.739 Y3.216 Z7.056 F600
G1 X-28.339 Y3.216 Z6.946 F600
G1 X-27.939 Y3.216 Z6.868 F600
G1 X-27.539 Y3.216 Z6.835 F600
G1 X-27.139 Y3.216 Z6.778 F600
G1 X-26.739 Y3.216 Z6.700 F600
G1 X-26.339 Y3.216 Z6.586 F600
G1 X-25.939 Y3.216 Z6.453 F600
G1 X-25.539 Y3.216 Z6.279 F600
G1 X-25.139 Y3.216 Z6.073 F600
G1 X-24.739 Y3.216 Z5.836 F600
G1 X-24.339 Y3.216 Z5.564 F600
G1 X-23.939 Y3.216 Z5.238 F600
G1 X-23.539 Y3.216 Z4.886 F600
G1 X-23.139 Y3.216 Z4.483 F600
G1 X-22.739 Y3.216 Z4.018 F600
G1 X-22.339 Y3.216 Z3.515 F600
G1 X-21.939 Y3.216 Z1.000 F600
G1 X-21.139 Y3.216 Z1.000 F600
G1 X-21.139 Y3.666 Z1.000 F600
G1 X-21.939 Y3.666 Z1.000 F600
G1 X-22.339 Y3.666 Z3.509 F600
G1 X-22.739 Y3.666 Z4.001 F600
G1 X-23.139 Y3.666 Z4.456 F600
G1 X-23.539 Y3.666 Z4.852 F600
G1 X-23.939 Y3.666 Z5.190 F600
G1 X-24.339 Y3.666 Z5.493 F600
G1 X-24.739 Y3.666 Z5.743 F600
G1 X-25.139 Y3.666 Z5.969 F600
G1 X-25.539 Y3.666 Z6.154 F600
G1 X-25.939 Y3.666 Z6.304 F600
G1 X-26.339 Y3.666 Z6.429 F600
G1 X-26.739 Y3.666 Z6.522 F600
G1 X-27.939 Y3.666 Z6.686 F600
G1 X-28.339 Y3.666 Z6.822 F600
G1 X-28.739 Y3.666 Z6.933 F600
G1 X-29.139 Y3.666 Z7.002 F600
G1 X-29.539 Y3.666 Z7.023 F600
G1 X-29.939 Y3.666 Z7.001 F600
G1 X-30.739 Y3.666 Z6.889 F600
G1 X-31.139 Y3.666 Z6.911 F600
G1 X-31.539 Y3.666 Z6.911 F600
G1 X-31.939 Y3.666 Z6.871 F600
G1 X-32.339 Y3.666 Z6.798 F600
G1 X-32.739 Y3.666 Z6.685 F600
G1 X-33.139 Y3.666 Z6.523 F600
G1 X-33.539 Y3.666 Z6.329 F600
G1 X-34.339 Y3.666 Z5.866 F600
G1 X-35.539 Y3.666 Z5.356 F600
G1 X-36.339 Y3.666 Z4.959 F600
G1 X-36.739 Y3.666 Z4.714 F600
G1 X-37.139 Y3.666 Z4.444 F600
G1 X-37.539 Y3.666 Z4.140 F600
G1 X-37.939 Y3.666 Z3.799 F600
G1 X-38.339 Y3.666 Z3.421 F600
G1 X-38.739 Y3.666 Z1.000 F600
G1 X-38.739 Y4.116 Z1.000 F600
G1 X-38.339 Y4.116 Z2.897 F600
G1 X-37.939 Y4.116 Z3.470 F600
G1 X-37.539 Y4.116 Z3.800 F600
G1 X-37.139 Y4.116 Z4.104 F600
G1 X-36.739 Y4.116 Z4.368 F600
G1 X-36.339 Y4.116 Z4.607 F600
G1 X-35.139 Y4.116 Z5.210 F600
G1 X-34.739 Y4.116 Z5.451 F600
G1 X-33.939 Y4.116 Z5.991 F600
G1 X-33.539 Y4.116 Z6.218 F600
G1 X-33.139 Y4.116 Z6.403 F600
G1 X-32.739 Y4.116 Z6.548 F600
G1 X-32.339 Y4.116 Z6.649 F600
G1 X-31.939 Y4.116 Z6.705 F600
G1 X-31.539 Y4.116 Z6.728 F600
G1 X-30.739 Y4.116 Z6.697 F600
G1 X-29.939 Y4.116 Z6.838 F600
G1 X-29.539 Y4.116 Z6.871 F600
G1 X-29.139 Y4.116 Z6.856 F600
G1 X-28.739 Y4.116 Z6.792 F600
G1 X-28.339 Y4.116 Z6.681 F600
G1 X-27.539 Y4.116 Z6.399 F600
G1 X-26.339 Y4.116 Z6.221 F600
G1 X-25.939 Y4.116 Z6.114 F600
G1 X-25.539 Y4.116 Z5.980 F600
G1 X-24.739 Y4.116 Z5.614 F600
G1 X-24.339 Y4.116 Z5.365 F600
G1 X-23.939 Y4.116 Z5.085 F600
G1 X-23.539 Y4.116 Z4.763 F600
G1 X-23.139 Y4.116 Z4.392 F600
G1 X-22.739 Y4.116 Z3.952 F600
G1 X-22.339 Y4.116 Z3.468 F600
G1 X-21.939 Y4.116 Z1.000 F600
G1 X-21.539 Y4.116 Z1.000 F600
G1 X-21.539 Y4.566 Z1.000 F600
G1 X-21.939 Y4.566 Z1.000 F600
G1 X-22.339 Y4.566 Z3.370 F600
G1 X-22.739 Y4.566 Z3.858 F600
G1 X-23.139 Y4.566 Z4.272 F600
G1 X-23.539 Y4.566 Z4.628 F600
G1 X-23.939 Y4.566 Z4.935 F600
G1 X-24.339 Y4.566 Z5.199 F600
G1 X-24.739 Y4.566 Z5.415 F600
G1 X-25.139 Y4.566 Z5.608 F600
G1 X-25.539 Y4.566 Z5.756 F600
G1 X-25.939 Y4.566 Z5.873 F600
G1 X-26.339 Y4.566 Z5.960 F600
G1 X-27.139 Y4.566 Z6.077 F600
G1 X-27.539 Y4.566 Z6.189 F600
G1 X-27.939 Y4.566 Z6.369 F600
G1 X-28.339 Y4.566 Z6.520 F600
G1 X-28.739 Y4.566 Z6.626 F600
G1 X-29.139 Y4.566 Z6.684 F600
G1 X-29.539 Y4.566 Z6.694 F600
G1 X-29.939 Y4.566 Z6.655 F600
G1 X-30.339 Y4.566 Z6.582 F600
G1 X-30.739 Y4.566 Z6.487 F600
G1 X-31.539 Y4.566 Z6.517 F600
G1 X-31.939 Y4.566 Z6.513 F600
G1 X-32.339 Y4.566 Z6.466 F600
G1 X-32.739 Y4.566 Z6.379 F600
G1 X-33.139 Y4.566 Z6.258 F600
G1 X-33.539 Y4.566 Z6.084 F600
G1 X-33.939 Y4.566 Z5.860 F600
G1 X-34.339 Y4.566 Z5.610 F600
G1 X-35.539 Y4.566 Z4.664 F600
G1 X-36.739 Y4.566 Z3.938 F600
G1 X-37.139 Y4.566 Z3.665 F600
G1 X-37.539 Y4.566 Z3.364 F600
G1 X-37.939 Y4.566 Z2.780 F600
G1 X-38.339 Y4.566 Z1.000 F600
G1 X-37.939 Y5.016 Z1.000 F600
G1 X-37.539 Y5.016 Z1.000 F600
G1 X-37.139 Y5.016 Z3.079 F600
G1 X-36.739 Y5.016 Z3.436 F600
G1 X-36.339 Y5.016 Z3.721 F600
G1 X-35.939 Y5.016 Z4.043 F600
G1 X-35.139 Y5.016 Z4.815 F600
G1 X-34.739 Y5.016 Z5.158 F600
G1 X-34.339 Y5.016 Z5.459 F600
G1 X-33.939 Y5.016 Z5.712 F600
G1 X-33.539 Y5.016 Z5.914 F600
G1 X-33.139 Y5.016 Z6.071 F600
G1 X-32.739 Y5.016 Z6.183 F600
G1 X-32.339 Y5.016 Z6.250 F600
G1 X-31.939 Y5.016 Z6.283 F600
G1 X-31.539 Y5.016 Z6.275 F600
G1 X-31.139 Y5.016 Z6.238 F600
G1 X-30.739 Y5.016 Z6.258 F600
G1 X-30.339 Y5.016 Z6.366 F600
G1 X-29.939 Y5.016 Z6.452 F600
G1 X-29.539 Y5.016 Z6.495 F600
G1 X-29.139 Y5.016 Z6.493 F600
G1 X-28.739 Y5.016 Z6.443 F600
G1 X-28.339 Y5.016 Z6.337 F600
G1 X-27.939 Y5.016 Z6.187 F600
G1 X-27.139 Y5.016 Z5.805 F600
G1 X-26.739 Y5.016 Z5.716 F600
G1 X-25.939 Y5.016 Z5.582 F600
G1 X-25.139 Y5.016 Z5.343 F600
G1 X-24.739 Y5.016 Z5.179 F600
G1 X-24.339 Y5.016 Z4.966 F600
G1 X-23.539 Y5.016 Z4.440 F600
G1 X-23.139 Y5.016 Z4.084 F600
G1 X-22.739 Y5.016 Z3.700 F600
G1 X-22.339 Y5.016 Z3.171 F600
G1 X-21.939 Y5.016 Z1.000 F600
G1 X-22.339 Y5.466 Z1.000 F600
G1 X-22.739 Y5.466 Z3.468 F600
G1 X-23.139 Y5.466 Z3.857 F600
G1 X-23.539 Y5.466 Z4.168 F600
G1 X-23.939 Y5.466 Z4.450 F600
G1 X-24.339 Y5.466 Z4.681 F600
G1 X-24.739 Y5.466 Z4.868 F600
G1 X-25.139 Y5.466 Z5.017 F600
G1 X-25.539 Y5.466 Z5.144 F600
G1 X-26.739 Y5.466 Z5.375 F600
G1 X-27.139 Y5.466 Z5.564 F600
G1 X-27.539 Y5.466 Z5.793 F600
G1 X-27.939 Y5.466 Z5.986 F600
G1 X-28.339 Y5.466 Z6.129 F600
G1 X-28.739 Y5.466 Z6.227 F600
G1 X-29.139 Y5.466 Z6.279 F600
G1 X-29.539 Y5.466 Z6.276 F600
G1 X-29.939 Y5.466 Z6.224 F600
G1 X-30.339 Y5.466 Z6.126 F600
G1 X-30.739 Y5.466 Z6.005 F600
G1 X-31.139 Y5.466 Z5.949 F600
G1 X-31.939 Y5.466 Z6.014 F600
G1 X-32.339 Y5.466 Z6.003 F600
G1 X-32.739 Y5.466 Z5.950 F600
G1 X-33.139 Y5.466 Z5.848 F600
G1 X-33.539 Y5.466 Z5.709 F600
G1 X-33.939 Y5.466 Z5.523 F600
G1 X-34.339 Y5.466 Z5.278 F600
G1 X-34.739 Y5.466 Z4.987 F600
G1 X-35.139 Y5.466 Z4.648 F600
G1 X-35.539 Y5.466 Z4.249 F600
G1 X-35.939 Y5.466 Z3.792 F600
G1 X-36.339 Y5.466 Z3.301 F600
G1 X-36.739 Y5.466 Z1.000 F600
G1 X-37.939 Y5.466 Z1.000 F600
G1 X-37.539 Y5.916 Z1.000 F600
G1 X-36.739 Y5.916 Z1.000 F600
G1 X-36.339 Y5.916 Z2.904 F600
G1 X-35.939 Y5.916 Z3.575 F600
G1 X-35.539 Y5.916 Z4.057 F600
G1 X-35.139 Y5.916 Z4.448 F600
G1 X-34.739 Y5.916 Z4.791 F600
G1 X-34.339 Y5.916 Z5.065 F600
G1 X-33.939 Y5.916 Z5.292 F600
G1 X-33.539 Y5.916 Z5.472 F600
G1 X-33.139 Y5.916 Z5.596 F600
G1 X-32.739 Y5.916 Z5.675 F600
G1 X-32.339 Y5.916 Z5.719 F600
G1 X-31.939 Y5.916 Z5.709 F600
G1 X-31.139 Y5.916 Z5.632 F600
G1 X-30.739 Y5.916 Z5.727 F600
G1 X-30.339 Y5.916 Z5.860 F600
G1 X-29.939 Y5.916 Z5.969 F600
G1 X-29.539 Y5.916 Z6.031 F600
G1 X-29.139 Y5.916 Z6.036 F600
G1 X-28.739 Y5.916 Z5.989 F600
G1 X-28.339 Y5.916 Z5.899 F600
G1 X-27.939 Y5.916 Z5.757 F600
G1 X-27.539 Y5.916 Z5.566 F600
G1 X-26.739 Y5.916 Z5.059 F600
G1 X-26.339 Y5.916 Z4.908 F600
G1 X-25.539 Y5.916 Z4.745 F600
G1 X-25.139 Y5.916 Z4.640 F600
G1 X-24.739 Y5.916 Z4.500 F600
G1 X-24.339 Y5.916 Z4.318 F600
G1 X-23.939 Y5.916 Z4.105 F600
G1 X-23.539 Y5.916 Z3.850 F600
G1 X-23.139 Y5.916 Z3.531 F600
G1 X-22.739 Y5.916 Z2.907 F600
G1 X-22.339 Y5.916 Z1.000 F600
G1 X-22.739 Y6.366 Z1.000 F600
G1 X-23.139 Y6.366 Z2.765 F600
G1 X-23.539 Y6.366 Z3.434 F600
G1 X-23.939 Y6.366 Z3.687 F600
G1 X-24.339 Y6.366 Z3.900 F600
G1 X-24.739 Y6.366 Z4.057 F600
G1 X-25.139 Y6.366 Z4.183 F600
G1 X-25.939 Y6.366 Z4.368 F600
G1 X-26.339 Y6.366 Z4.499 F600
G1 X-27.139 Y6.366 Z5.058 F600
G1 X-27.539 Y6.366 Z5.309 F600
G1 X-27.939 Y6.366 Z5.507 F600
G1 X-28.339 Y6.366 Z5.640 F600
G1 X-28.739 Y6.366 Z5.730 F600
G1 X-29.139 Y6.366 Z5.764 F600
G1 X-29.539 Y6.366 Z5.755 F600
G1 X-29.939 Y6.366 Z5.686 F600
G1 X-30.339 Y6.366 Z5.568 F600
G1 X-31.139 Y6.366 Z5.286 F600
G1 X-31.539 Y6.366 Z5.311 F600
G1 X-31.939 Y6.366 Z5.362 F600
G1 X-32.339 Y6.366 Z5.381 F600
G1 X-32.739 Y6.366 Z5.364 F600
G1 X-33.139 Y6.366 Z5.303 F600
G1 X-33.539 Y6.366 Z5.186 F600
G1 X-33.939 Y6.366 Z5.023 F600
G1 X-34.339 Y6.366 Z4.822 F600
G1 X-34.739 Y6.366 Z4.547 F600
G1 X-35.139 Y6.366 Z4.212 F600
G1 X-35.539 Y6.366 Z3.823 F600
G1 X-35.939 Y6.366 Z3.336 F600
G1 X-36.339 Y6.366 Z1.000 F600
G1 X-37.139 Y6.366 Z1.000 F600
G1 X-36.739 Y6.816 Z1.000 F600
G1 X-36.339 Y6.816 Z1.000 F600
G1 X-35.939 Y6.816 Z2.974 F600
G1 X-35.539 Y6.816 Z3.552 F600
G1 X-35.139 Y6.816 Z3.940 F600
G1 X-34.739 Y6.816 Z4.261 F600
G1 X-34.339 Y6.816 Z4.514 F600
G1 X-33.939 Y6.816 Z4.718 F600
G1 X-33.539 Y6.816 Z4.860 F600
G1 X-33.139 Y6.816 Z4.957 F600
G1 X-32.739 Y6.816 Z5.008 F600
G1 X-32.339 Y6.816 Z5.003 F600
G1 X-31.939 Y6.816 Z4.968 F600
G1 X-31.539 Y6.816 Z4.912 F600
G1 X-31.139 Y6.816 Z4.913 F600
G1 X-30.339 Y6.816 Z5.242 F600
G1 X-29.939 Y6.816 Z5.374 F600
G1 X-29.539 Y6.816 Z5.447 F600
G1 X-29.139 Y6.816 Z5.471 F600
G1 X-28.739 Y6.816 Z5.439 F600
G1 X-28.339 Y6.816 Z5.357 F600
G1 X-27.939 Y6.816 Z5.223 F600
G1 X-27.539 Y6.816 Z5.024 F600
G1 X-27.139 Y6.816 Z4.767 F600
G1 X-26.739 Y6.816 Z4.470 F600
G1 X-26.339 Y6.816 Z4.131 F600
G1 X-25.939 Y6.816 Z3.865 F600
G1 X-25.539 Y6.816 Z3.744 F600
G1 X-24.739 Y6.816 Z3.527 F600
G1 X-24.339 Y6.816 Z3.377 F600
G1 X-23.939 Y6.816 Z3.109 F600
G1 X-23.539 Y6.816 Z1.000 F600
G1 X-23.139 Y6.816 Z1.000 F600
G1 X-23.939 Y7.266 Z1.000 F600
G1 X-24.739 Y7.266 Z1.000 F600
G1 X-25.139 Y7.266 Z2.580 F600
G1 X-25.539 Y7.266 Z3.102 F600
G1 X-25.939 Y7.266 Z3.365 F600
G1 X-26.339 Y7.266 Z3.765 F600
G1 X-26.739 Y7.266 Z4.134 F600
G1 X-27.139 Y7.266 Z4.449 F600
G1 X-27.539 Y7.266 Z4.713 F600
G1 X-27.939 Y7.266 Z4.901 F600
G1 X-28.339 Y7.266 Z5.045 F600
G1 X-28.739 Y7.266 Z5.119 F600
G1 X-29.139 Y7.266 Z5.146 F600
G1 X-29.539 Y7.266 Z5.105 F600
G1 X-29.939 Y7.266 Z5.024 F600
G1 X-30.339 Y7.266 Z4.880 F600
G1 X-31.139 Y7.266 Z4.502 F600
G1 X-31.539 Y7.266 Z4.463 F600
G1 X-32.339 Y7.266 Z4.574 F600
G1 X-32.739 Y7.266 Z4.588 F600
G1 X-33.139 Y7.266 Z4.563 F600
G1 X-33.539 Y7.266 Z4.493 F600
G1 X-33.939 Y7.266 Z4.358 F600
G1 X-34.339 Y7.266 Z4.167 F600
G1 X-34.739 Y7.266 Z3.920 F600
G1 X-35.139 Y7.266 Z3.624 F600
G1 X-35.539 Y7.266 Z3.123 F600
G1 X-35.939 Y7.266 Z1.000 F600
G1 X-36.339 Y7.266 Z1.000 F600
G1 X-35.539 Y7.716 Z1.000 F600
G1 X-35.139 Y7.716 Z3.201 F600
G1 X-34.739 Y7.716 Z3.525 F600
G1 X-34.339 Y7.716 Z3.781 F600
G1 X-33.939 Y7.716 Z3.941 F600
G1 X-33.539 Y7.716 Z4.054 F600
G1 X-33.139 Y7.716 Z4.114 F600
G1 X-32.739 Y7.716 Z4.124 F600
G1 X-32.339 Y7.716 Z4.095 F600
G1 X-31.539 Y7.716 Z3.962 F600
G1 X-31.139 Y7.716 Z4.054 F600
G1 X-30.339 Y7.716 Z4.478 F600
G1 X-29.939 Y7.716 Z4.637 F600
G1 X-29.539 Y7.716 Z4.734 F600
G1 X-29.139 Y7.716 Z4.777 F600
G1 X-28.739 Y7.716 Z4.763 F600
G1 X-28.339 Y7.716 Z4.689 F600
G1 X-27.939 Y7.716 Z4.549 F600
G1 X-27.539 Y7.716 Z4.355 F600
G1 X-27.139 Y7.716 Z4.092 F600
G1 X-26.739 Y7.716 Z3.765 F600
G1 X-26.339 Y7.716 Z3.338 F600
G1 X-25.939 Y7.716 Z1.000 F600
G1 X-24.339 Y7.716 Z1.000 F600
G1 X-25.139 Y8.166 Z1.000 F600
G1 X-25.939 Y8.166 Z1.000 F600
G1 X-26.339 Y8.166 Z2.631 F600
G1 X-26.739 Y8.166 Z3.359 F600
G1 X-27.139 Y8.166 Z3.686 F600
G1 X-27.539 Y8.166 Z3.953 F600
G1 X-27.939 Y8.166 Z4.162 F600
G1 X-28.339 Y8.166 Z4.292 F600
G1 X-28.739 Y8.166 Z4.371 F600
G1 X-29.139 Y8.166 Z4.370 F600
G1 X-29.539 Y8.166 Z4.325 F600
G1 X-29.939 Y8.166 Z4.200 F600
G1 X-30.339 Y8.166 Z4.027 F600
G1 X-31.139 Y8.166 Z3.548 F600
G1 X-31.539 Y8.166 Z3.395 F600
G1 X-31.939 Y8.166 Z3.452 F600
G1 X-32.339 Y8.166 Z3.534 F600
G1 X-32.739 Y8.166 Z3.587 F600
G1 X-33.139 Y8.166 Z3.604 F600
G1 X-33.539 Y8.166 Z3.546 F600
G1 X-33.939 Y8.166 Z3.439 F600
G1 X-34.339 Y8.166 Z3.247 F600
G1 X-34.739 Y8.166 Z2.598 F600
G1 X-35.139 Y8.166 Z1.000 F600
G1 X-34.339 Y8.616 Z1.000 F600
G1 X-33.939 Y8.616 Z1.000 F600
G1 X-33.539 Y8.616 Z2.683 F600
G1 X-33.139 Y8.616 Z2.723 F600
G1 X-32.739 Y8.616 Z2.699 F600
G1 X-32.339 Y8.616 Z1.000 F600
G1 X-31.139 Y8.616 Z1.000 F600
G1 X-30.739 Y8.616 Z3.268 F600
G1 X-30.339 Y8.616 Z3.519 F600
G1 X-29.939 Y8.616 Z3.712 F600
G1 X-29.539 Y8.616 Z3.855 F600
G1 X-29.139 Y8.616 Z3.913 F600
G1 X-28.739 Y8.616 Z3.924 F600
G1 X-28.339 Y8.616 Z3.847 F600
G1 X-27.939 Y8.616 Z3.717 F600
G1 X-27.539 Y8.616 Z3.509 F600
G1 X-27.139 Y8.616 Z3.137 F600
G1 X-26.739 Y8.616 Z1.000 F600
G1 X-25.939 Y8.616 Z1.000 F600
G1 X-26.739 Y9.066 Z1.000 F600
G1 X-27.139 Y9.066 Z1.000 F600
G1 X-27.539 Y9.066 Z2.594 F600
G1 X-27.939 Y9.066 Z3.116 F600
G1 X-28.339 Y9.066 Z3.266 F600
G1 X-28.739 Y9.066 Z3.346 F600
G1 X-29.139 Y9.066 Z3.335 F600
G1 X-29.539 Y9.066 Z3.250 F600
G1 X-29.939 Y9.066 Z3.094 F600
G1 X-30.339 Y9.066 Z2.658 F600
G1 X-30.739 Y9.066 Z1.000 F600
G1 X-33.139 Y9.066 Z1.000 F600
G1 X-31.539 Y9.516 Z1.000 F600
G1 X-28.339 Y9.516 Z1.000 F600
G0 Z12.000
M5
G0 X0 Y0 Z40
M114
