; mill a 12 x 12 mm pocket, 1 mm deep, into a wax block (run with --stock wax)
; the block is 30 x 30 x 8 mm, centred at X-30 Y0 on the plate
G28
M6 T1              ; spindle
M3 S9000
G90
G0 X-36 Y-6 Z12
; pass at 0.5 mm depth
G0 X-36 Y-6 Z9
G1 Z7.50 F60
G1 X-24.00 Y-6.00 F180
G1 Y-4.50 F180
G1 X-36.00 Y-4.50 F180
G1 Y-3.00 F180
G1 X-24.00 Y-3.00 F180
G1 Y-1.50 F180
G1 X-36.00 Y-1.50 F180
G1 Y0.00 F180
G1 X-24.00 Y0.00 F180
G1 Y1.50 F180
G1 X-36.00 Y1.50 F180
G1 Y3.00 F180
G1 X-24.00 Y3.00 F180
G1 Y4.50 F180
G1 X-36.00 Y4.50 F180
G1 Y6.00 F180
G1 X-24.00 Y6.00 F180
G0 Z10
; pass at 1.0 mm depth
G0 X-36 Y-6 Z9
G1 Z7.00 F60
G1 X-24.00 Y-6.00 F180
G1 Y-4.50 F180
G1 X-36.00 Y-4.50 F180
G1 Y-3.00 F180
G1 X-24.00 Y-3.00 F180
G1 Y-1.50 F180
G1 X-36.00 Y-1.50 F180
G1 Y0.00 F180
G1 X-24.00 Y0.00 F180
G1 Y1.50 F180
G1 X-36.00 Y1.50 F180
G1 Y3.00 F180
G1 X-24.00 Y3.00 F180
G1 Y4.50 F180
G1 X-36.00 Y4.50 F180
G1 Y6.00 F180
G1 X-24.00 Y6.00 F180
G0 Z10
M5
G0 X0 Y0 Z40
M114
