; tour: every tool and feature in about four minutes of machine time
; @stock wax 20 20 8 -30 0
G28                ; home (skipped with quick start)
G90
M118 Tour 1/5: the enclosure. Exhaust fan on: fumes and chips leave through one duct.
M106 S180
M140 S60           ; bed at 60 C
M104 S210
M118 Tour 2/5: 3D printing. The hot end prints a ring, the plate turns so the arm stays in its plane.
M6 T0              ; pick up the hot end
M109 S210          ; wait for the hot end
M83
G0 X9 Y0 Z5
M620               ; polar mode on
; layer 1
G1 X9 Y0 Z0.300 F600
G1 E0.8 F1200
G1 X8.923 Y1.175 E0.073 F700
G1 X8.693 Y2.329 E0.073 F700
G1 X8.315 Y3.444 E0.073 F700
G1 X7.794 Y4.500 E0.073 F700
G1 X7.140 Y5.479 E0.073 F700
G1 X6.364 Y6.364 E0.073 F700
G1 X5.479 Y7.140 E0.073 F700
G1 X4.500 Y7.794 E0.073 F700
G1 X3.444 Y8.315 E0.073 F700
G1 X2.329 Y8.693 E0.073 F700
G1 X1.175 Y8.923 E0.073 F700
G1 X0.000 Y9.000 E0.073 F700
G1 X-1.175 Y8.923 E0.073 F700
G1 X-2.329 Y8.693 E0.073 F700
G1 X-3.444 Y8.315 E0.073 F700
G1 X-4.500 Y7.794 E0.073 F700
G1 X-5.479 Y7.140 E0.073 F700
G1 X-6.364 Y6.364 E0.073 F700
G1 X-7.140 Y5.479 E0.073 F700
G1 X-7.794 Y4.500 E0.073 F700
G1 X-8.315 Y3.444 E0.073 F700
G1 X-8.693 Y2.329 E0.073 F700
G1 X-8.923 Y1.175 E0.073 F700
G1 X-9.000 Y0.000 E0.073 F700
G1 X-8.923 Y-1.175 E0.073 F700
G1 X-8.693 Y-2.329 E0.073 F700
G1 X-8.315 Y-3.444 E0.073 F700
G1 X-7.794 Y-4.500 E0.073 F700
G1 X-7.140 Y-5.479 E0.073 F700
G1 X-6.364 Y-6.364 E0.073 F700
G1 X-5.479 Y-7.140 E0.073 F700
G1 X-4.500 Y-7.794 E0.073 F700
G1 X-3.444 Y-8.315 E0.073 F700
G1 X-2.329 Y-8.693 E0.073 F700
G1 X-1.175 Y-8.923 E0.073 F700
G1 X-0.000 Y-9.000 E0.073 F700
G1 X1.175 Y-8.923 E0.073 F700
G1 X2.329 Y-8.693 E0.073 F700
G1 X3.444 Y-8.315 E0.073 F700
G1 X4.500 Y-7.794 E0.073 F700
G1 X5.479 Y-7.140 E0.073 F700
G1 X6.364 Y-6.364 E0.073 F700
G1 X7.140 Y-5.479 E0.073 F700
G1 X7.794 Y-4.500 E0.073 F700
G1 X8.315 Y-3.444 E0.073 F700
G1 X8.693 Y-2.329 E0.073 F700
G1 X8.923 Y-1.175 E0.073 F700
G1 X9.000 Y-0.000 E0.073 F700
G1 E-0.8 F1800
; layer 2
G1 X9 Y0 Z0.600 F600
G1 E0.8 F1200
G1 X8.923 Y1.175 E0.073 F1000
G1 X8.693 Y2.329 E0.073 F1000
G1 X8.315 Y3.444 E0.073 F1000
G1 X7.794 Y4.500 E0.073 F1000
G1 X7.140 Y5.479 E0.073 F1000
G1 X6.364 Y6.364 E0.073 F1000
G1 X5.479 Y7.140 E0.073 F1000
G1 X4.500 Y7.794 E0.073 F1000
G1 X3.444 Y8.315 E0.073 F1000
G1 X2.329 Y8.693 E0.073 F1000
G1 X1.175 Y8.923 E0.073 F1000
G1 X0.000 Y9.000 E0.073 F1000
G1 X-1.175 Y8.923 E0.073 F1000
G1 X-2.329 Y8.693 E0.073 F1000
G1 X-3.444 Y8.315 E0.073 F1000
G1 X-4.500 Y7.794 E0.073 F1000
G1 X-5.479 Y7.140 E0.073 F1000
G1 X-6.364 Y6.364 E0.073 F1000
G1 X-7.140 Y5.479 E0.073 F1000
G1 X-7.794 Y4.500 E0.073 F1000
G1 X-8.315 Y3.444 E0.073 F1000
G1 X-8.693 Y2.329 E0.073 F1000
G1 X-8.923 Y1.175 E0.073 F1000
G1 X-9.000 Y0.000 E0.073 F1000
G1 X-8.923 Y-1.175 E0.073 F1000
G1 X-8.693 Y-2.329 E0.073 F1000
G1 X-8.315 Y-3.444 E0.073 F1000
G1 X-7.794 Y-4.500 E0.073 F1000
G1 X-7.140 Y-5.479 E0.073 F1000
G1 X-6.364 Y-6.364 E0.073 F1000
G1 X-5.479 Y-7.140 E0.073 F1000
G1 X-4.500 Y-7.794 E0.073 F1000
G1 X-3.444 Y-8.315 E0.073 F1000
G1 X-2.329 Y-8.693 E0.073 F1000
G1 X-1.175 Y-8.923 E0.073 F1000
G1 X-0.000 Y-9.000 E0.073 F1000
G1 X1.175 Y-8.923 E0.073 F1000
G1 X2.329 Y-8.693 E0.073 F1000
G1 X3.444 Y-8.315 E0.073 F1000
G1 X4.500 Y-7.794 E0.073 F1000
G1 X5.479 Y-7.140 E0.073 F1000
G1 X6.364 Y-6.364 E0.073 F1000
G1 X7.140 Y-5.479 E0.073 F1000
G1 X7.794 Y-4.500 E0.073 F1000
G1 X8.315 Y-3.444 E0.073 F1000
G1 X8.693 Y-2.329 E0.073 F1000
G1 X8.923 Y-1.175 E0.073 F1000
G1 X9.000 Y-0.000 E0.073 F1000
G1 E-0.8 F1800
; layer 3
G1 X9 Y0 Z0.900 F600
G1 E0.8 F1200
G1 X8.923 Y1.175 E0.073 F1000
G1 X8.693 Y2.329 E0.073 F1000
G1 X8.315 Y3.444 E0.073 F1000
G1 X7.794 Y4.500 E0.073 F1000
G1 X7.140 Y5.479 E0.073 F1000
G1 X6.364 Y6.364 E0.073 F1000
G1 X5.479 Y7.140 E0.073 F1000
G1 X4.500 Y7.794 E0.073 F1000
G1 X3.444 Y8.315 E0.073 F1000
G1 X2.329 Y8.693 E0.073 F1000
G1 X1.175 Y8.923 E0.073 F1000
G1 X0.000 Y9.000 E0.073 F1000
G1 X-1.175 Y8.923 E0.073 F1000
G1 X-2.329 Y8.693 E0.073 F1000
G1 X-3.444 Y8.315 E0.073 F1000
G1 X-4.500 Y7.794 E0.073 F1000
G1 X-5.479 Y7.140 E0.073 F1000
G1 X-6.364 Y6.364 E0.073 F1000
G1 X-7.140 Y5.479 E0.073 F1000
G1 X-7.794 Y4.500 E0.073 F1000
G1 X-8.315 Y3.444 E0.073 F1000
G1 X-8.693 Y2.329 E0.073 F1000
G1 X-8.923 Y1.175 E0.073 F1000
G1 X-9.000 Y0.000 E0.073 F1000
G1 X-8.923 Y-1.175 E0.073 F1000
G1 X-8.693 Y-2.329 E0.073 F1000
G1 X-8.315 Y-3.444 E0.073 F1000
G1 X-7.794 Y-4.500 E0.073 F1000
G1 X-7.140 Y-5.479 E0.073 F1000
G1 X-6.364 Y-6.364 E0.073 F1000
G1 X-5.479 Y-7.140 E0.073 F1000
G1 X-4.500 Y-7.794 E0.073 F1000
G1 X-3.444 Y-8.315 E0.073 F1000
G1 X-2.329 Y-8.693 E0.073 F1000
G1 X-1.175 Y-8.923 E0.073 F1000
G1 X-0.000 Y-9.000 E0.073 F1000
G1 X1.175 Y-8.923 E0.073 F1000
G1 X2.329 Y-8.693 E0.073 F1000
G1 X3.444 Y-8.315 E0.073 F1000
G1 X4.500 Y-7.794 E0.073 F1000
G1 X5.479 Y-7.140 E0.073 F1000
G1 X6.364 Y-6.364 E0.073 F1000
G1 X7.140 Y-5.479 E0.073 F1000
G1 X7.794 Y-4.500 E0.073 F1000
G1 X8.315 Y-3.444 E0.073 F1000
G1 X8.693 Y-2.329 E0.073 F1000
G1 X8.923 Y-1.175 E0.073 F1000
G1 X9.000 Y-0.000 E0.073 F1000
G1 E-0.8 F1800
G0 Z10
M621               ; polar mode off
M104 S0
M118 Tour 3/5: safety interlock. The operator opens the door, and the spindle may not start until it is shut.
M6 T1              ; change to the spindle
M118 @door open 4  ; the operator opens the door for 4 s
G4 P300
M3 S8000           ; held by the interlock until the door is shut
M118 Tour 4/5: milling. The spindle cuts a 10 x 8 mm pocket, 1 mm deep, into the wax block.
G0 X-35 Y-4 Z11
G1 Z7.500 F120
G1 Y-4.000 F300
G1 X-25.000 F300
G1 Y-3.000 F300
G1 X-35.000 F300
G1 Y-2.000 F300
G1 X-25.000 F300
G1 Y-1.000 F300
G1 X-35.000 F300
G1 Y0.000 F300
G1 X-25.000 F300
G1 Y1.000 F300
G1 X-35.000 F300
G1 Y2.000 F300
G1 X-25.000 F300
G1 Y3.000 F300
G1 X-35.000 F300
G1 Y4.000 F300
G1 X-25.000 F300
G0 Z11
G0 X-35 Y-4
G1 Z7.000 F120
G1 Y-4.000 F300
G1 X-25.000 F300
G1 Y-3.000 F300
G1 X-35.000 F300
G1 Y-2.000 F300
G1 X-25.000 F300
G1 Y-1.000 F300
G1 X-35.000 F300
G1 Y0.000 F300
G1 X-25.000 F300
G1 Y1.000 F300
G1 X-35.000 F300
G1 Y2.000 F300
G1 X-25.000 F300
G1 Y3.000 F300
G1 X-35.000 F300
G1 Y4.000 F300
G1 X-25.000 F300
G0 Z11
G0 X-35 Y-4
M5
M118 Tour 5/5: measuring. The touch probe finds the block top, the pocket floor and the bare plate.
M6 T2              ; change to the touch probe
G0 X-23 Y7 Z14
G38.2 Z4 F120   ; block top (8 mm nominal)
G0 Z14
G0 X-30 Y0
G38.2 Z4 F120   ; pocket floor (7 mm nominal)
G0 Z14
G0 X20 Y0
G38.2 Z-4 F120     ; bare plate (0 mm nominal)
G0 Z14
M107               ; fan off
G0 X0 Y0 Z40
M118 Tour done. Each PRB line is a measured height, and the differences from nominal are the machine's own errors.
M114
